id,ident,type,name,latitude_deg,longitude_deg,elevation_ft,continent,iso_country,iso_region,municipality,scheduled_service,gps_code,iata_code,local_code,home_link,wikipedia_link,keywords
4614,BKPR,large_airport,Priština International Airport,42.5728,21.035801,1789,EU,XK,XK-01,Prishtina,yes,BKPR,PRN,,http://www.airportpristina.com/,https://en.wikipedia.org/wiki/Pristina_International_Airport,"LYPR, Pristina, Slatina Air Base"
1717,CYEG,large_airport,Edmonton International Airport,53.30970001,-113.5800018,2373,NA,CA,CA-AB,Edmonton,yes,CYEG,YEG,CYEG,http://www.edmontonairports.com/,https://en.wikipedia.org/wiki/Edmonton_International_Airport,YEA
1770,CYHZ,large_airport,Halifax / Stanfield International Airport,44.88079834,-63.50859833,477,NA,CA,CA-NS,Halifax,yes,CYHZ,YHZ,,http://www.hiaa.ca/,https://en.wikipedia.org/wiki/Halifax_International_Airport,Robert L. Stanfield International Airport
1840,CYOW,large_airport,Ottawa Macdonald-Cartier International Airport,45.32249832,-75.66919708,374,NA,CA,CA-ON,Ottawa,yes,CYOW,YOW,YOW,http://www.ottawa-airport.ca/,https://en.wikipedia.org/wiki/Ottawa_Macdonald-Cartier_International_Airport,"Uplands, UUP, CUUP"
1928,CYUL,large_airport,Montreal / Pierre Elliott Trudeau International Airport,45.47060013,-73.74079895,118,NA,CA,CA-QC,Montréal,yes,CYUL,YUL,YUL,http://www.admtl.com/passager/Home.aspx,https://en.wikipedia.org/wiki/Montr%C3%A9al-Pierre_Elliott_Trudeau_International_Airport,"YMQ, Dorval Airport"
1941,CYVR,large_airport,Vancouver International Airport,49.19390106,-123.1839981,14,NA,CA,CA-BC,Vancouver,yes,CYVR,YVR,,http://www.yvr.ca/,https://en.wikipedia.org/wiki/Vancouver_International_Airport,
1946,CYWG,large_airport,Winnipeg / James Armstrong Richardson International Airport,49.90999985,-97.23989868,783,NA,CA,CA-MB,Winnipeg,yes,CYWG,YWG,YWG,http://www.waa.ca/,https://en.wikipedia.org/wiki/Winnipeg_James_Armstrong_Richardson_International_Airport,CFB Winnipeg
1973,CYYC,large_airport,Calgary International Airport,51.11389923,-114.0199966,3557,NA,CA,CA-AB,Calgary,yes,CYYC,YYC,,http://www.calgaryairport.com/,https://en.wikipedia.org/wiki/Calgary_International_Airport,McCall Field
1979,CYYJ,large_airport,Victoria International Airport,48.64690018,-123.4260025,63,NA,CA,CA-BC,Victoria,yes,CYYJ,YYJ,,http://www.victoriaairport.com/,https://en.wikipedia.org/wiki/Victoria_International_Airport,
1986,CYYT,large_airport,St. John's International Airport,47.61859894,-52.75189972,461,NA,CA,CA-NL,St. John's,yes,CYYT,YYT,,http://www.stjohnsairport.com/,https://en.wikipedia.org/wiki/St._John's_International_Airport,
1990,CYYZ,large_airport,Lester B. Pearson International Airport,43.67720032,-79.63059998,569,NA,CA,CA-ON,Toronto,yes,CYYZ,YYZ,YYZ,http://www.gtaa.com/,https://en.wikipedia.org/wiki/Toronto_Pearson_International_Airport,"YTO, Toronto International Airport, Malton"
2104,DNAA,large_airport,Nnamdi Azikiwe International Airport,9.006790161,7.263169765,1123,AF,NG,NG-FC,Abuja,yes,DNAA,ABV,,http://www.faannigeria.org/nigeria-airport.php?airport=3,https://en.wikipedia.org/wiki/Nnamdi_Azikiwe_International_Airport,
309668,DNAI,large_airport,Akwa Ibom International Airport,4.8725,8.093,170,AF,NG,NG-AK,Uyo,yes,DNAI,QUO,,http://www.ibomairport.com.ng/,https://en.wikipedia.org/wiki/Akwa_Ibom_Airport,
2115,DNKN,large_airport,Mallam Aminu International Airport,12.0476,8.52462,1562,AF,NG,NG-KN,Kano,yes,DNKN,KAN,,http://www.faannigeria.org/nigeria-airport.php?airport=2,https://en.wikipedia.org/wiki/Mallam_Aminu_Kano_International_Airport,
2118,DNMM,large_airport,Murtala Muhammed International Airport,6.577370167,3.321160078,135,AF,NG,NG-LA,Lagos,yes,DNMM,LOS,,http://www.faannigeria.org/nigeria-airport.php?airport=1,https://en.wikipedia.org/wiki/Murtala_Mohammed_International_Airport,
2133,DTTA,large_airport,Tunis Carthage International Airport,36.85100174,10.22719955,22,AF,TN,TN-11,Tunis,yes,DTTA,TUN,,http://www.oaca.nat.tn/english/div_horizontal_tunis_airport_eng.htm,https://en.wikipedia.org/wiki/Tunis-Carthage_International_Airport,"Aéroport international de Tunis-Carthage, مطار تونس قرطاج الدولي"
2155,EBBR,large_airport,Brussels Airport,50.90140152,4.48443985,184,EU,BE,BE-BRU,Brussels,yes,EBBR,BRU,,http://www.brusselsairport.be/en/,https://en.wikipedia.org/wiki/Brussels_Airport,
2157,EBCI,large_airport,Brussels South Charleroi Airport,50.459202,4.45382,614,EU,BE,BE-WHT,Brussels,yes,EBCI,CRL,,http://www.charleroi-airport.com/doc.php?nd=o29&tid=29&lg=2&docid=1&site=1,https://en.wikipedia.org/wiki/Brussels_South_Charleroi_Airport,Gosselies Airport
2162,EBLG,large_airport,Liège Airport,50.63740158,5.443220139,659,EU,BE,BE-WLG,Liège,yes,EBLG,LGG,,http://www.liegeairport.be/,https://en.wikipedia.org/wiki/Li%C3%A8ge_Airport,
2209,EDDB,large_airport,Berlin-Schönefeld Airport,52.380001,13.5225,157,EU,DE,DE-BR,Berlin,yes,EDDB,SXF,,http://www.berlin-airport.de/en/travellers-sxf/index.php,https://en.wikipedia.org/wiki/Berlin-Sch%C3%B6nefeld_International_Airport,"BER, Schoenefeld"
2210,EDDC,large_airport,Dresden Airport,51.13280106,13.76720047,755,EU,DE,DE-SN,Dresden,yes,EDDC,DRS,,http://www.dresden-airport.de/en/index.html,https://en.wikipedia.org/wiki/Dresden_Airport,
2212,EDDF,large_airport,Frankfurt am Main Airport,50.033333,8.570556,364,EU,DE,DE-HE,Frankfurt am Main,yes,EDDF,FRA,,http://www.frankfurt-airport.de/,https://en.wikipedia.org/wiki/Frankfurt_Airport,"EDAF, Rhein-Main Air Base"
2214,EDDH,large_airport,Hamburg Airport,53.63040161,9.988229752,53,EU,DE,DE-HH,Hamburg,yes,EDDH,HAM,,https://www.hamburg-airport.de/en/,https://en.wikipedia.org/wiki/Hamburg_Airport,
2216,EDDK,large_airport,Cologne Bonn Airport,50.86589813,7.142739773,302,EU,DE,DE-NW,Cologne,yes,EDDK,CGN,,http://www.koeln-bonn-airport.de/en/,https://en.wikipedia.org/wiki/Cologne_Bonn_Airport,Köln
2217,EDDL,large_airport,Düsseldorf Airport,51.289501,6.76678,147,EU,DE,DE-NW,Düsseldorf,yes,EDDL,DUS,,http://www.dus.com/dus_en/,https://en.wikipedia.org/wiki/D%C3%BCsseldorf_Airport,
2218,EDDM,large_airport,Munich Airport,48.353802,11.7861,1487,EU,DE,DE-BY,Munich,yes,EDDM,MUC,,http://www.munich-airport.com/,https://en.wikipedia.org/wiki/Munich_Airport,"Franz Josef Strauss Airport, Flughafen München Franz Josef Strauß"
2219,EDDN,large_airport,Nuremberg Airport,49.498699,11.078056,1046,EU,DE,DE-BY,Nuremberg,yes,EDDN,NUE,,https://www.airport-nuernberg.de/english,https://en.wikipedia.org/wiki/Nuremberg_Airport,Nürnberg
2220,EDDP,large_airport,Leipzig/Halle Airport,51.423889,12.236389,465,EU,DE,DE-SN,Leipzig,yes,EDDP,LEJ,,http://www.leipzig-halle-airport.de/en/index.html,https://en.wikipedia.org/wiki/Leipzig/Halle_Airport,Schkeuditz Airport
2222,EDDS,large_airport,Stuttgart Airport,48.68989944,9.221960068,1276,EU,DE,DE-BW,Stuttgart,yes,EDDS,STR,,http://www.flughafen-stuttgart.de/,https://en.wikipedia.org/wiki/Stuttgart_Airport,
2223,EDDT,large_airport,Berlin-Tegel Airport,52.5597,13.2877,122,EU,DE,DE-BE,Berlin,yes,EDDT,TXL,,http://www.berlin-airport.de/en/travellers-txl/index.php,https://en.wikipedia.org/wiki/Berlin_Tegel_Airport,"BER, Otto Lilienthal"
2270,EDSB,large_airport,Karlsruhe Baden-Baden Airport,48.77939987,8.080499649,408,EU,DE,DE-BW,Baden-Baden,yes,EDSB,FKB,,http://www.baden-airpark.de/startseite.html,https://en.wikipedia.org/wiki/Baden_Airpark,Baden Airpark
2301,EETN,large_airport,Lennart Meri Tallinn Airport,59.41329956,24.83279991,131,EU,EE,EE-37,Tallinn,yes,EETN,TLL,,http://www.tallinn-airport.ee/eng,https://en.wikipedia.org/wiki/Tallinn_Airport,
2307,EFHK,large_airport,Helsinki Vantaa Airport,60.31719971,24.9633007,179,EU,FI,FI-ES,Helsinki,yes,EFHK,HEL,,http://www.finavia.fi/en/helsinki-airport,https://en.wikipedia.org/wiki/Helsinki-Vantaa_Airport,
2385,EGAA,large_airport,Belfast International Airport,54.65750122,-6.215829849,268,EU,GB,GB-NIR,Belfast,yes,EGAA,BFS,,http://www.belfastairport.com/,https://en.wikipedia.org/wiki/Belfast_International_Airport,"Aldergrove, RAF Aldergrove"
2387,EGAC,large_airport,George Best Belfast City Airport,54.61809921,-5.872499943,15,EU,GB,GB-NIR,Belfast,yes,EGAC,BHD,,http://www.belfastcityairport.com/,https://en.wikipedia.org/wiki/George_Best_Belfast_City_Airport,
2389,EGBB,large_airport,Birmingham International Airport,52.45389938,-1.748029947,327,EU,GB,GB-ENG,Birmingham,yes,EGBB,BHX,,http://www.bhx.co.uk/,https://en.wikipedia.org/wiki/Birmingham_International_Airport_(United_Kingdom),
2398,EGCC,large_airport,Manchester Airport,53.35369873,-2.274950027,257,EU,GB,GB-ENG,Manchester,yes,EGCC,MAN,,http://www.manchesterairport.co.uk/,https://en.wikipedia.org/wiki/Manchester_Airport,"Ringway Airport, RAF Ringway"
2401,EGCN,large_airport,Robin Hood Doncaster Sheffield Airport,53.48053781,-1.010656357,55,EU,GB,GB-ENG,Doncaster,yes,EGCN,DSA,,http://www.robinhoodairport.com/,https://en.wikipedia.org/wiki/Robin_Hood_Airport_Doncaster_Sheffield,RAF Finningley
2415,EGFF,large_airport,Cardiff International Airport,51.39670181,-3.343329906,220,EU,GB,GB-WLS,Cardiff,yes,EGFF,CWL,,http://www.cwlfly.com/,https://en.wikipedia.org/wiki/Cardiff_International_Airport,Rhoose
2417,EGGD,large_airport,Bristol Airport,51.382702,-2.71909,622,EU,GB,GB-ENG,Bristol,yes,EGGD,BRS,,http://www.bristolairport.co.uk/,https://en.wikipedia.org/wiki/Bristol_International_Airport,Lulsgate Bottom
2418,EGGP,large_airport,Liverpool John Lennon Airport,53.33359909,-2.849720001,80,EU,GB,GB-ENG,Liverpool,yes,EGGP,LPL,,http://www.liverpoolairport.com/,https://en.wikipedia.org/wiki/Liverpool_John_Lennon_Airport,
2419,EGGW,large_airport,London Luton Airport,51.87469864,-0.368333012,526,EU,GB,GB-ENG,London,yes,EGGW,LTN,,http://www.london-luton.co.uk/en/,https://en.wikipedia.org/wiki/London_Luton_Airport,LON
2421,EGHH,large_airport,Bournemouth Airport,50.77999878,-1.842499971,38,EU,GB,GB-ENG,Bournemouth,yes,EGHH,BOH,,http://www.bournemouthairport.com/,https://en.wikipedia.org/wiki/Bournemouth_Airport,RAF Hurn
2422,EGHI,large_airport,Southampton Airport,50.95029831,-1.35679996,44,EU,GB,GB-ENG,Southampton,yes,EGHI,SOU,,http://www.southamptonairport.com/,https://en.wikipedia.org/wiki/Southampton_Airport,"RAF Eastleigh, RAF Southampton"
2429,EGKK,large_airport,London Gatwick Airport,51.148102,-0.190278,202,EU,GB,GB-ENG,London,yes,EGKK,LGW,,http://www.gatwickairport.com/,https://en.wikipedia.org/wiki/Gatwick_Airport,"LON, Crawley, Charlwood"
2434,EGLL,large_airport,London Heathrow Airport,51.4706,-0.461941,83,EU,GB,GB-ENG,London,yes,EGLL,LHR,,http://www.heathrowairport.com/,https://en.wikipedia.org/wiki/Heathrow_Airport,"LON, Londres"
2444,EGNM,large_airport,Leeds Bradford Airport,53.86589813,-1.660570025,681,EU,GB,GB-ENG,Leeds,yes,EGNM,LBA,,http://www.lbia.co.uk/,https://en.wikipedia.org/wiki/Leeds_Bradford_International_Airport,
2448,EGNT,large_airport,Newcastle Airport,55.03749847,-1.691669941,266,EU,GB,GB-ENG,Newcastle,yes,EGNT,NCL,,http://www.newcastleairport.com/,https://en.wikipedia.org/wiki/Newcastle_Airport,
2450,EGNX,large_airport,East Midlands Airport,52.83110046,-1.328060031,306,EU,GB,GB-ENG,Nottingham,yes,EGNX,EMA,,http://www.eastmidlandsairport.com/,https://en.wikipedia.org/wiki/East_Midlands_Airport,RAF Castle Donington
2459,EGPD,large_airport,Aberdeen Dyce Airport,57.20190048,-2.197779894,215,EU,GB,GB-SCT,Aberdeen,yes,EGPD,ABZ,,http://www.aberdeenairport.com/,https://en.wikipedia.org/wiki/Aberdeen_Airport,
2461,EGPF,large_airport,Glasgow International Airport,55.871899,-4.43306,26,EU,GB,GB-SCT,Glasgow,yes,EGPF,GLA,,http://www.glasgowairport.com/,https://en.wikipedia.org/wiki/Glasgow_International_Airport,"Port-adhair Eadar-nàiseanta Ghlaschu, RAF Abbotsinch, RAF Ayr"
2462,EGPH,large_airport,Edinburgh Airport,55.95000076,-3.372499943,135,EU,GB,GB-SCT,Edinburgh,yes,EGPH,EDI,,http://www.edinburghairport.com/,https://en.wikipedia.org/wiki/Edinburgh_Airport,
2475,EGSH,large_airport,Norwich International Airport,52.67580032,1.282780051,117,EU,GB,GB-ENG,Norwich,yes,EGSH,NWI,,http://www.norwichairport.co.uk/,https://en.wikipedia.org/wiki/Norwich_International_Airport,RAF Horsham St Faith
2476,EGSS,large_airport,London Stansted Airport,51.88499832,0.234999999,348,EU,GB,GB-ENG,London,yes,EGSS,STN,,http://www.stanstedairport.com/,https://en.wikipedia.org/wiki/London_Stansted_Airport,LON
2481,EGTE,large_airport,Exeter International Airport,50.7344017,-3.413889885,102,EU,GB,GB-ENG,Exeter,yes,EGTE,EXT,,http://www.exeter-airport.co.uk/,https://en.wikipedia.org/wiki/Exeter_International_Airport,
2487,EGUL,large_airport,RAF Lakenheath,52.40930176,0.56099999,32,EU,GB,GB-ENG,Lakenheath,no,EGUL,LKZ,,http://www.lakenheath.af.mil/,https://en.wikipedia.org/wiki/RAF_Lakenheath,
2488,EGUN,large_airport,RAF Mildenhall,52.36190033,0.486405998,33,EU,GB,GB-ENG,Mildenhall,no,EGUN,MHZ,,http://www.mildenhall.af.mil/,https://en.wikipedia.org/wiki/RAF_Mildenhall,
2493,EGVN,large_airport,RAF Brize Norton,51.75,-1.58362,288,EU,GB,GB-ENG,Brize Norton,yes,EGVN,BZZ,,http://www.raf.mod.uk/rafbrizenorton/passengers/,https://en.wikipedia.org/wiki/RAF_Brize_Norton,Royal Air Force
2513,EHAM,large_airport,Amsterdam Airport Schiphol,52.308601,4.76389,-11,EU,NL,NL-NH,Amsterdam,yes,EHAM,AMS,,http://www.schiphol.nl/,https://en.wikipedia.org/wiki/Amsterdam_Airport_Schiphol,
2518,EHEH,large_airport,Eindhoven Airport,51.45009995,5.374529839,74,EU,NL,NL-NB,Eindhoven,yes,EHEH,EIN,,http://www.eindhovenairport.nl/,https://en.wikipedia.org/wiki/Eindhoven_Airport,Welschap Airport
2530,EICK,large_airport,Cork Airport,51.84130096,-8.491109848,502,EU,IE,IE-C,Cork,yes,EICK,ORK,,http://www.corkairport.com/,https://en.wikipedia.org/wiki/Cork_Airport,Aerfort Chorcaí
2533,EIDW,large_airport,Dublin Airport,53.421299,-6.27007,242,EU,IE,IE-D,Dublin,yes,EIDW,DUB,,http://www.dublinairport.com/,https://en.wikipedia.org/wiki/Dublin_Airport,Aerfort Bhaile Átha Cliath
2537,EINN,large_airport,Shannon Airport,52.702,-8.92482,46,EU,IE,IE-CE,Shannon,yes,EINN,SNN,,http://www.shannonairport.com/,https://en.wikipedia.org/wiki/Shannon_Airport,
2541,EKBI,large_airport,Billund Airport,55.74029922,9.151780128,247,EU,DK,DK-83,Billund,yes,EKBI,BLL,,http://www.billund-airport.dk/?sc_lang=en,https://en.wikipedia.org/wiki/Billund_Airport,
2542,EKCH,large_airport,Copenhagen Kastrup Airport,55.61790085,12.65600014,17,EU,DK,DK-84,Copenhagen,yes,EKCH,CPH,,http://www.cph.dk/en/,https://en.wikipedia.org/wiki/Copenhagen_Airport,"København, Malmö"
2562,EKYT,large_airport,Aalborg Airport,57.09275891,9.849243164,10,EU,DK,DK-81,Aalborg,yes,EKYT,AAL,,http://www.aal.dk,https://en.wikipedia.org/wiki/Aalborg_Airport,
2563,ELLX,large_airport,Luxembourg-Findel International Airport,49.6233333,6.2044444,1234,EU,LU,LU-L,Luxembourg,yes,ELLX,LUX,,http://www.lux-airport.lu/en/,https://en.wikipedia.org/wiki/Luxembourg-Findel_International_Airport,
2569,ENBO,large_airport,Bodø Airport,67.26920319,14.36530018,42,EU,NO,NO-18,Bodø,yes,ENBO,BOO,,http://www.avinor.no/en/airport/bodo/frontpage,https://en.wikipedia.org/wiki/Bod%C3%B8_Airport,"Bodø Air Force Base, Bodø Main Air Station"
2570,ENBR,large_airport,Bergen Airport Flesland,60.29339981,5.218140125,170,EU,NO,NO-12,Bergen,yes,ENBR,BGO,,http://www.avinor.no/en/airport/bergen,https://en.wikipedia.org/wiki/Bergen_Airport%2C_Flesland,
2578,ENGM,large_airport,Oslo Gardermoen Airport,60.19390106,11.10039997,681,EU,NO,NO-02,Oslo,yes,ENGM,OSL,,https://avinor.no/en/airport/oslo-airport,"https://en.wikipedia.org/wiki/Oslo_Airport,_Gardermoen",
2599,ENTC,large_airport,Tromsø Airport,69.6832962,18.91889954,31,EU,NO,NO-19,Tromsø,yes,ENTC,TOS,,http://www.avinor.no/en/airport/tromso,https://en.wikipedia.org/wiki/Troms%C3%B8_Airport,"Langnes, Tromsøya, Tromso"
2601,ENVA,large_airport,Trondheim Airport Værnes,63.4578018,10.9239998,56,EU,NO,NO-17,Trondheim,yes,ENVA,TRD,,https://avinor.no/en/airport/trondheim-airport/,https://en.wikipedia.org/wiki/Trondheim_Airport%2C_V%C3%A6rnes,
2602,ENZV,large_airport,Stavanger Airport Sola,58.87670135,5.63778019,29,EU,NO,NO-11,Stavanger,yes,ENZV,SVG,,http://www.avinor.no/en/airport/stavanger/,"https://en.wikipedia.org/wiki/Stavanger_Airport,_Sola","Sola Air Station, Stavanger lufthavn, Sola"
2608,EPGD,large_airport,Gdańsk Lech Wałęsa Airport,54.37760162,18.46619987,489,EU,PL,PL-PM,Gdańsk,yes,EPGD,GDN,,http://www.airport.gdansk.pl/,https://en.wikipedia.org/wiki/Gda%C5%84sk_Lech_Wa%C5%82%C4%99sa_Airport,Gdańsk-Rębiechowo
2609,EPKK,large_airport,Kraków John Paul II International Airport,50.077702,19.7848,791,EU,PL,PL-MA,Kraków,yes,EPKK,KRK,,http://www.krakowairport.pl/en/,https://en.wikipedia.org/wiki/Kraków_John_Paul_II_International_Airport,Krakov
2613,EPKT,large_airport,Katowice International Airport,50.4743,19.08,995,EU,PL,PL-SL,Katowice,yes,EPKT,KTW,,http://katowice.airport.com,https://en.wikipedia.org/wiki/Katowice_International_Airport,"Pyrzowice, Dąbrowa Górnicza, Katowice, Silesia, GOP, Silesia Metropolis, Gliwice, Piekary Śląskie, Bytom, Zabrze, Sosnowiec"
2622,EPMO,large_airport,Modlin Airport,52.451099,20.6518,341,EU,PL,PL-MZ,Warsaw,yes,EPMO,WMI,,http://modlinairport.pl/,https://en.wikipedia.org/wiki/Warsaw_Modlin_Airport,Nowy Dwor Mazowiecki
2625,EPPO,large_airport,Poznań-Ławica Airport,52.42100143,16.82629967,308,EU,PL,PL-WP,Poznań,yes,EPPO,POZ,,http://www.airport-poznan.com.pl/en/,https://en.wikipedia.org/wiki/Pozna%C5%84-%C5%81awica_Airport,
2637,EPWA,large_airport,Warsaw Chopin Airport,52.16569901,20.96710014,362,EU,PL,PL-MZ,Warsaw,yes,EPWA,WAW,,http://www.lotnisko-chopina.pl/?lang=en,https://en.wikipedia.org/wiki/Warsaw_Frederic_Chopin_Airport,Okęcie
2638,EPWR,large_airport,Copernicus Wrocław Airport,51.10269928,16.88579941,404,EU,PL,PL-DS,Wrocław,yes,EPWR,WRO,,http://www.airport.wroclaw.pl/en/index.php,https://en.wikipedia.org/wiki/Copernicus_Airport_Wroc%C5%82aw,"Strachowice, Breslau"
2648,ESGG,large_airport,Gothenburg-Landvetter Airport,57.66279984,12.27980042,506,EU,SE,SE-Q,Gothenburg,yes,ESGG,GOT,,https://www.swedavia.com/landvetter/,https://en.wikipedia.org/wiki/Gothenburg-Landvetter_Airport,Göteborg-Landvetter
2669,ESMS,large_airport,Malmö Sturup Airport,55.53630536,13.37619781,236,EU,SE,SE-M,Malmö,yes,ESMS,MMX,,http://www.swedavia.com/malmo/,https://en.wikipedia.org/wiki/Malm%C3%B6_Airport,
2697,ESPA,large_airport,Luleå Airport,65.54380035,22.12199974,65,EU,SE,SE-BD,Luleå,yes,ESPA,LLA,,https://www.swedavia.com/lulea/,https://en.wikipedia.org/wiki/Lule%C3%A5_Airport,Kallax Air Base
2701,ESSA,large_airport,Stockholm-Arlanda Airport,59.65190125,17.91860008,137,EU,SE,SE-AB,Stockholm,yes,ESSA,ARN,,http://www.swedavia.se/arlanda/,https://en.wikipedia.org/wiki/Stockholm-Arlanda_Airport,
2718,ETAR,large_airport,Ramstein Air Base,49.43690109,7.600279808,776,EU,DE,DE-RP,Ramstein,no,ETAR,RMS,,http://www.ramstein.af.mil/,https://en.wikipedia.org/wiki/Ramstein_Air_Base,Landstuhl Air Base
2758,EVRA,large_airport,Riga International Airport,56.92359924,23.97109985,36,EU,LV,LV-RIX,Riga,yes,EVRA,RIX,,http://www.riga-airport.com/,https://en.wikipedia.org/wiki/Riga_International_Airport,
2766,EYVI,large_airport,Vilnius International Airport,54.634102,25.285801,648,EU,LT,LT-VL,Vilnius,yes,EYVI,VNO,,http://www.vilnius-airport.lt/en/,https://en.wikipedia.org/wiki/Vilnius_International_Airport,
2775,FACT,large_airport,Cape Town International Airport,-33.96480179,18.60169983,151,AF,ZA,ZA-WC,Cape Town,yes,FACT,CPT,,http://www.airports.co.za/home.asp?pid=229,https://en.wikipedia.org/wiki/Cape_Town_International_Airport,"Kaapstad Internasionale Lughawe, CTIA, DF Malan Airport"
2792,FAJS,large_airport,OR Tambo International Airport,-26.1392,28.246,5558,AF,ZA,ZA-GT,Johannesburg,yes,FAOR,JNB,,http://www.acsa.co.za/home.asp?pid=228,https://en.wikipedia.org/wiki/OR_Tambo_International_Airport,Johannesburg International Airport
2878,FIMP,large_airport,Sir Seewoosagur Ramgoolam International Airport,-20.430201,57.683601,186,AF,MU,MU-GP,Port Louis,yes,FIMP,MRU,,http://aml.mru.aero/,https://en.wikipedia.org/wiki/Sir_Seewoosagur_Ramgoolam_International_Airport,Plaisance International Airport
2894,FLLS,large_airport,Kenneth Kaunda International Airport,-15.3308,28.4526,3779,AF,ZM,ZM-09,Lusaka,yes,FLKK,LUN,,http://www.nacl.co.zm/?page_id=336,https://en.wikipedia.org/wiki/Kenneth_Kaunda_International_Airport,
3039,FYWH,large_airport,Hosea Kutako International Airport,-22.4799,17.4709,5640,AF,NA,NA-KH,Windhoek,yes,FYWH,WDH,,http://airports.com.na/,https://en.wikipedia.org/wiki/Windhoek_Hosea_Kutako_International_Airport,J.G. Strijdom Airport
3081,GCLP,large_airport,Gran Canaria Airport,27.93190002,-15.38659954,78,EU,ES,ES-CN,Gran Canaria Island,yes,GCLP,LPA,,http://www.aena.es/csee/Satellite?pagename=subHome&Language=EN_GB&c=Page&SiteName=LPA&cid=1048858940184,https://en.wikipedia.org/wiki/Gran_Canaria_Airport,"Canary Islands, Las Palmas Airport, Gando Airport"
3095,GFLL,large_airport,Lungi International Airport,8.61644,-13.1955,84,AF,SL,SL-N,Freetown,yes,GFLL,FNA,,http://www.freetownairport.com/,https://en.wikipedia.org/wiki/Lungi_International_Airport,
3113,GMMN,large_airport,Mohammed V International Airport,33.36750031,-7.589970112,656,AF,MA,MA-CAS,Casablanca,yes,GMMN,CMN,,http://www.onda.ma/ONDA/Fr/Espaces/EspacePassagers/LeReseauAeroportuaireONDA/Lesaeroports/Fiches+d%E2%80%99identit%C3%A9+par+a%C,https://en.wikipedia.org/wiki/Mohammed_V_International_Airport,"CAS, Casabianca, Nouasseur"
325736,GOBD,large_airport,Blaise Diagne International Airport,14.67,-17.073333,290,AF,SN,SN-DK,Dakar,yes,GOBD,DSS,,http://www.dakaraeroport.com/,https://en.wikipedia.org/wiki/Blaise_Diagne_International_Airport,"dakar,new dakar airport, dakar airport, diass airport"
3125,GOOY,large_airport,Léopold Sédar Senghor International Airport,14.73970032,-17.49020004,85,AF,SN,SN-DK,Dakar,yes,GOOY,DKR,,http://www.aeroportdakar.com/,https://en.wikipedia.org/wiki/Dakar-Yoff-L%C3%A9opold_S%C3%A9dar_Senghor_International_Airport,
3157,HAAB,large_airport,Addis Ababa Bole International Airport,8.977890015,38.79930115,7630,AF,ET,ET-AA,Addis Ababa,yes,HAAB,ADD,,http://www.ethiopianairports.com,https://en.wikipedia.org/wiki/Bole_International_Airport,"Haile Selassie I, Bole International Airport"
3171,HCMH,large_airport,Egal International Airport,9.513207,44.082389,4471,AF,SO,SO-WO,Hargeisa,yes,HCMH,HGA,,http://l.facebook.com/l.php?u=http%3A%2F%2Fwww.somalilandaviation.com%2F&h=AT2r8UIJqOYWDa0S_hV1mbRmYgqrpbW3KArb9oL43ykG2KOE0Obep,https://en.wikipedia.org/wiki/Hargeisa_International_Airport,"Madaarka Caalamiga a ee Cigaal, مطار هرجيسا إيغال الدولية‎)"
3206,HKJK,large_airport,Jomo Kenyatta International Airport,-1.319239974,36.92779922,5330,AF,KE,KE-110,Nairobi,yes,HKJK,NBO,,http://www.kenyaairports.com/jkia/IndexJkia.php,https://en.wikipedia.org/wiki/Jomo_Kenyatta_International_Airport,"Jkia Airport, Embakasi Airport, Nairobi International Airport"
3213,HKMO,large_airport,Mombasa Moi International Airport,-4.034830093,39.59420013,200,AF,KE,KE-300,Mombasa,yes,HKMO,MBA,,http://www.kenyaairports.co.ke/kaa/airports/moi/,https://en.wikipedia.org/wiki/Moi_International_Airport,
3251,HTDA,large_airport,Julius Nyerere International Airport,-6.87811,39.202599,182,AF,TZ,TZ-02,Dar es Salaam,yes,HTDA,DAR,,http://www.tanzaniairports.com/,https://en.wikipedia.org/wiki/Julius_Nyerere_International_Airport,"HTJN, Mwalimu Julius K. Nyerere, Dar es Salaam International Airport"
3263,HUEN,large_airport,Entebbe International Airport,0.042386,32.443501,3782,AF,UG,UG-C,Kampala,yes,HUEN,EBB,,https://entebbe-airport.com/,https://en.wikipedia.org/wiki/Entebbe_International_Airport,
309298,ID-0017,large_airport,Aji Pangeran Tumenggung Pranoto International Airport,-0.374448,117.249392,73,AS,ID,ID-KI,Samarinda,yes,WALS,AAP,,http://www.proyek.dishubprovkaltim.info/?pro=1,https://en.wikipedia.org/wiki/Samarinda_International_Airport,"Sungai Siring Airport, فرودگاه سیرینگ"
16091,KABQ,large_airport,Albuquerque International Sunport,35.040199,-106.609001,5355,NA,US,US-NM,Albuquerque,yes,KABQ,ABQ,ABQ,http://www.abqsunport.com/,https://en.wikipedia.org/wiki/Albuquerque_International_Sunport,
3364,KADW,large_airport,Joint Base Andrews,38.810799,-76.866997,280,NA,US,US-MD,Camp Springs,no,KADW,ADW,ADW,http://www.jba.af.mil/,https://en.wikipedia.org/wiki/Joint_Base_Andrews,Andrews Air Force Base
3366,KAFW,large_airport,Fort Worth Alliance Airport,32.98759842,-97.31880188,722,NA,US,US-TX,Fort Worth,no,KAFW,AFW,AFW,http://www.allianceairport.com/,https://en.wikipedia.org/wiki/Fort_Worth_Alliance_Airport,
3377,KAMA,large_airport,Rick Husband Amarillo International Airport,35.219398,-101.706001,3607,NA,US,US-TX,Amarillo,yes,KAMA,AMA,AMA,http://airport.amarillo.gov/,https://en.wikipedia.org/wiki/Rick_Husband_Amarillo_International_Airport,
3384,KATL,large_airport,Hartsfield Jackson Atlanta International Airport,33.6367,-84.428101,1026,NA,US,US-GA,Atlanta,yes,KATL,ATL,ATL,http://www.atlanta-airport.com/,https://en.wikipedia.org/wiki/Hartsfield–Jackson_Atlanta_International_Airport,
3386,KAUS,large_airport,Austin Bergstrom International Airport,30.19449997,-97.66989899,542,NA,US,US-TX,Austin,yes,KAUS,AUS,AUS,http://www.ci.austin.tx.us/austinairport/,https://en.wikipedia.org/wiki/Austin-Bergstrom_International_Airport,
3396,KBDL,large_airport,Bradley International Airport,41.93889999,-72.68319702,173,NA,US,US-CT,Hartford,yes,KBDL,BDL,BDL,http://www.bradleyairport.com/,https://en.wikipedia.org/wiki/Bradley_International_Airport,"HFD, Hartford"
3406,KBHM,large_airport,Birmingham-Shuttlesworth International Airport,33.56290054,-86.75350189,650,NA,US,US-AL,Birmingham,yes,KBHM,BHM,BHM,http://www.flybirmingham.com/,https://en.wikipedia.org/wiki/Birmingham_International_Airport_(US),
3421,KBOI,large_airport,Boise Air Terminal/Gowen Field,43.5644,-116.223,2871,NA,US,US-ID,Boise,yes,KBOI,BOI,BOI,http://www.cityofboise.org/departments/airport/,https://en.wikipedia.org/wiki/Boise_Airport,"Boise Air Terminal, Gowen Field"
3422,KBOS,large_airport,General Edward Lawrence Logan International Airport,42.36429977,-71.00520325,20,NA,US,US-MA,Boston,yes,KBOS,BOS,BOS,http://www.massport.com/logan/,https://en.wikipedia.org/wiki/Logan_International_Airport,General Edward Lawrence Logan International Airport
3435,KBWI,large_airport,Baltimore/Washington International Thurgood Marshall Airport,39.1754,-76.668297,146,NA,US,US-MD,Baltimore,yes,KBWI,BWI,BWI,https://www.bwiairport.com/,https://en.wikipedia.org/wiki/Baltimore%E2%80%93Washington_International_Airport,WAS
3454,KCLE,large_airport,Cleveland Hopkins International Airport,41.4117012,-81.84980011,791,NA,US,US-OH,Cleveland,yes,KCLE,CLE,CLE,http://www.clevelandairport.com/,https://en.wikipedia.org/wiki/Cleveland_Hopkins_International_Airport,
3457,KCLT,large_airport,Charlotte Douglas International Airport,35.2140007,-80.94309998,748,NA,US,US-NC,Charlotte,yes,KCLT,CLT,CLT,http://www.charlotteairport.com/,https://en.wikipedia.org/wiki/Charlotte/Douglas_International_Airport,
3458,KCMH,large_airport,John Glenn Columbus International Airport,39.998001,-82.891899,815,NA,US,US-OH,Columbus,yes,KCMH,CMH,CMH,https://flycolumbus.com/,https://en.wikipedia.org/wiki/Port_Columbus_International_Airport,
3463,KCOS,large_airport,City of Colorado Springs Municipal Airport,38.805801,-104.700996,6187,NA,US,US-CO,Colorado Springs,yes,KCOS,COS,COS,https://flycos.coloradosprings.gov/,https://en.wikipedia.org/wiki/Colorado_Springs_Airport,
3473,KCVS,large_airport,Cannon Air Force Base,34.38280106,-103.3219986,4295,NA,US,US-NM,Clovis,no,KCVS,CVS,CVS,http://www.cannon.af.mil/,https://en.wikipedia.org/wiki/Cannon_Air_Force_Base,
3479,KDAL,large_airport,Dallas Love Field,32.847099,-96.851799,487,NA,US,US-TX,Dallas,yes,KDAL,DAL,DAL,http://www.dallas-lovefield.com/,https://en.wikipedia.org/wiki/Dallas_Love_Field,QDF
3483,KDCA,large_airport,Ronald Reagan Washington National Airport,38.8521,-77.037697,15,NA,US,US-DC,Washington,yes,KDCA,DCA,DCA,http://www.flyreagan.com/dca/reagan-national-airport,https://en.wikipedia.org/wiki/Ronald_Reagan_Washington_National_Airport,WAS
3486,KDEN,large_airport,Denver International Airport,39.86169815,-104.6729965,5431,NA,US,US-CO,Denver,yes,KDEN,DEN,DEN,http://www.flydenver.com/,https://en.wikipedia.org/wiki/Denver_International_Airport,"DVX, KVDX"
3488,KDFW,large_airport,Dallas Fort Worth International Airport,32.896801,-97.038002,607,NA,US,US-TX,Dallas-Fort Worth,yes,KDFW,DFW,DFW,https://www.dfwairport.com/,https://en.wikipedia.org/wiki/Dallas/Fort_Worth_International_Airport,QDF
3490,KDLF,large_airport,DLF Airport,29.359501,-100.778002,1082,NA,US,US-TX,Del Rio,no,KDLF,DLF,DLF,http://www.laughlin.af.mil/,https://en.wikipedia.org/wiki/Laughlin_Air_Force_Base,"Laughlin AFB, Laughlin Field"
3491,KDLH,large_airport,Duluth International Airport,46.84209824,-92.19360352,1428,NA,US,US-MN,Duluth,yes,KDLH,DLH,DLH,http://www.duluthairport.com/,https://en.wikipedia.org/wiki/Duluth_International_Airport,"LKI, Duluth Air National Guard Base, Lakeside AFB"
3494,KDOV,large_airport,Dover Air Force Base,39.12950134,-75.46600342,24,NA,US,US-DE,Dover,no,KDOV,DOV,DOV,http://www.dover.af.mil/,https://en.wikipedia.org/wiki/Dover_Air_Force_Base,"Municipal Airport - Dover Airdrome, Dover Army Airbase, Dover Army Airfield"
3497,KDTW,large_airport,Detroit Metropolitan Wayne County Airport,42.21239853,-83.35340118,645,NA,US,US-MI,Detroit,yes,KDTW,DTW,DTW,http://www.metroairport.com/,https://en.wikipedia.org/wiki/Detroit_Metropolitan_Wayne_County_Airport,"DTT, Detroit Metro Airport"
3499,KDYS,large_airport,Dyess Air Force Base,32.42079926,-99.854599,1789,NA,US,US-TX,Abilene,no,KDYS,DYS,DYS,http://www.dyess.af.mil/,https://en.wikipedia.org/wiki/Dyess_Air_Force_Base,
3513,KEND,large_airport,Vance Air Force Base,36.33919907,-97.91649628,1307,NA,US,US-OK,Enid,no,KEND,END,END,http://www.vance.af.mil/,https://en.wikipedia.org/wiki/Vance_Air_Force_Base,
3521,KEWR,large_airport,Newark Liberty International Airport,40.69250107,-74.16870117,18,NA,US,US-NJ,Newark,yes,KEWR,EWR,EWR,http://www.panynj.gov/CommutingTravel/airports/html/newarkliberty.html,https://en.wikipedia.org/wiki/Newark_Liberty_International_Airport,"Manhattan, New York City, NYC"
3528,KFFO,large_airport,Wright-Patterson Air Force Base,39.8260994,-84.0483017,823,NA,US,US-OH,Dayton,no,KFFO,FFO,FFO,http://www.wpafb.af.mil/,https://en.wikipedia.org/wiki/Wright-Patterson_Air_Force_Base,"Wilbur Wright Field, Fairfield Air Depot"
3531,KFLL,large_airport,Fort Lauderdale Hollywood International Airport,26.072599,-80.152702,9,NA,US,US-FL,Fort Lauderdale,yes,KFLL,FLL,FLL,http://www.broward.org/airport,https://en.wikipedia.org/wiki/Fort_Lauderdale–Hollywood_International_Airport,"MFW, South Florida"
3545,KFTW,large_airport,Fort Worth Meacham International Airport,32.819801,-97.362396,710,NA,US,US-TX,Fort Worth,no,KFTW,FTW,FTW,http://meacham.com/,https://en.wikipedia.org/wiki/Fort_Worth_Meacham_International_Airport,
3547,KFWA,large_airport,Fort Wayne International Airport,40.97850037,-85.19509888,814,NA,US,US-IN,Fort Wayne,yes,KFWA,FWA,FWA,https://fwairport.com/,https://en.wikipedia.org/wiki/Fort_Wayne_International_Airport,Baer Field
3567,KGSB,large_airport,Seymour Johnson Air Force Base,35.33940125,-77.96060181,109,NA,US,US-NC,Goldsboro,no,KGSB,GSB,GSB,http://www.seymourjohnson.af.mil/,https://en.wikipedia.org/wiki/Seymour_Johnson_Air_Force_Base,
3573,KGUS,large_airport,Grissom Air Reserve Base,40.64810181,-86.15209961,812,NA,US,US-IN,Peru,no,KGUS,GUS,GUS,http://www.grissom.afrc.af.mil/,https://en.wikipedia.org/wiki/Grissom_Air_Reserve_Base,
3584,KHMN,large_airport,Holloman Air Force Base,32.85250092,-106.1070023,4093,NA,US,US-NM,Alamogordo,no,KHMN,HMN,HMN,http://www.holloman.af.mil/,https://en.wikipedia.org/wiki/Holloman_Air_Force_Base,Alamogordo AAF
3588,KHOU,large_airport,William P Hobby Airport,29.64539909,-95.27890015,46,NA,US,US-TX,Houston,yes,KHOU,HOU,HOU,http://www.fly2houston.com/hobbyHome,https://en.wikipedia.org/wiki/William_P._Hobby_Airport,QHO
3594,KHSV,large_airport,Huntsville International Carl T Jones Field,34.6371994,-86.77510071,629,NA,US,US-AL,Huntsville,yes,KHSV,HSV,HSV,http://www.flyhuntsville.com/portal/#.VbaG-_lVhBc,https://en.wikipedia.org/wiki/Huntsville_International_Airport,
3602,KIAD,large_airport,Washington Dulles International Airport,38.94449997,-77.45580292,312,NA,US,US-DC,Washington,yes,KIAD,IAD,IAD,http://www.mwaa.com/dulles/,https://en.wikipedia.org/wiki/Washington_Dulles_International_Airport,WAS
3604,KIAH,large_airport,George Bush Intercontinental Houston Airport,29.9843998,-95.34140015,97,NA,US,US-TX,Houston,yes,KIAH,IAH,IAH,http://www.fly2houston.com/iah,https://en.wikipedia.org/wiki/George_Bush_Intercontinental_Airport,QHO
3610,KIND,large_airport,Indianapolis International Airport,39.7173,-86.294403,797,NA,US,US-IN,Indianapolis,yes,KIND,IND,IND,http://www.indianapolisairport.com/,https://en.wikipedia.org/wiki/Indianapolis_International_Airport,
3622,KJFK,large_airport,John F Kennedy International Airport,40.63980103,-73.77890015,13,NA,US,US-NY,New York,yes,KJFK,JFK,JFK,http://www.panynj.gov/CommutingTravel/airports/html/kennedy.html,https://en.wikipedia.org/wiki/John_F._Kennedy_International_Airport,"Manhattan, New York City, NYC, Idlewild"
3631,KLAS,large_airport,McCarran International Airport,36.08010101,-115.1520004,2181,NA,US,US-NV,Las Vegas,yes,KLAS,LAS,LAS,http://www.mccarran.com/,https://en.wikipedia.org/wiki/McCarran_International_Airport,
3632,KLAX,large_airport,Los Angeles International Airport,33.94250107,-118.4079971,125,NA,US,US-CA,Los Angeles,yes,KLAX,LAX,LAX,http://www.iflylax.com/,https://en.wikipedia.org/wiki/Los_Angeles_International_Airport,
3633,KLBB,large_airport,Lubbock Preston Smith International Airport,33.663601,-101.822998,3282,NA,US,US-TX,Lubbock,yes,KLBB,LBB,LBB,http://www.flylia.com/,https://en.wikipedia.org/wiki/Lubbock_Preston_Smith_International_Airport,
3638,KLCK,large_airport,Rickenbacker International Airport,39.813801,-82.927803,744,NA,US,US-OH,Columbus,yes,KLCK,LCK,LCK,http://rickenbackerinlandport.com/en/rickenbacker-international-airport/,https://en.wikipedia.org/wiki/Rickenbacker_International_Airport,Lockbourne Army Air Field
3640,KLEX,large_airport,Blue Grass Airport,38.03649902,-84.60590363,979,NA,US,US-KY,Lexington,yes,KLEX,LEX,LEX,http://www.bluegrassairport.com/,https://en.wikipedia.org/wiki/Blue_Grass_Airport,
3641,KLFI,large_airport,Langley Air Force Base,37.082901,-76.36049652,11,NA,US,US-VA,Hampton,no,KLFI,LFI,LFI,http://www.langleyafb.us/,https://en.wikipedia.org/wiki/Langley_Field,Langley Field
3642,KLFT,large_airport,Lafayette Regional Airport,30.20529938,-91.98760223,42,NA,US,US-LA,Lafayette,yes,KLFT,LFT,LFT,http://www.lftairport.com/Home,https://en.wikipedia.org/wiki/Lafayette_Regional_Airport,
3643,KLGA,large_airport,La Guardia Airport,40.77719879,-73.87259674,21,NA,US,US-NY,New York,yes,KLGA,LGA,LGA,http://www.panynj.gov/CommutingTravel/airports/html/laguardia.html,https://en.wikipedia.org/wiki/LaGuardia_Airport,"Manhattan, New York City, NYC, Glenn H. Curtiss Airport, North Beach Airport, La Guardia"
3657,KLTS,large_airport,Altus Air Force Base,34.667099,-99.26670074,1382,NA,US,US-OK,Altus,no,KLTS,LTS,LTS,http://www.altus.af.mil/,https://en.wikipedia.org/wiki/Altus_Air_Force_Base,
3658,KLUF,large_airport,Luke Air Force Base,33.53499985,-112.3830032,1085,NA,US,US-AZ,Glendale,no,KLUF,LUF,LUF,http://www.luke.af.mil/,https://en.wikipedia.org/wiki/Luke_Air_Force_Base,
3664,KMBS,large_airport,MBS International Airport,43.53290176,-84.07959747,668,NA,US,US-MI,Saginaw,yes,KMBS,MBS,MBS,http://www.mbsairport.org/,https://en.wikipedia.org/wiki/MBS_International_Airport,"Tri City Airport, Midland, Bay City"
3667,KMCF,large_airport,Mac Dill Air Force Base,27.84930038,-82.52120209,14,NA,US,US-FL,Tampa,no,KMCF,MCF,MCF,http://www.macdill.af.mil/,https://en.wikipedia.org/wiki/MacDill_Air_Force_Base,"Southeast Air Base - Tampa, MacDill Field"
3668,KMCI,large_airport,Kansas City International Airport,39.2976,-94.713898,1026,NA,US,US-MO,Kansas City,yes,KMCI,MCI,MCI,http://www.flykci.com/,https://en.wikipedia.org/wiki/Kansas_City_International_Airport,
3670,KMCO,large_airport,Orlando International Airport,28.42939949,-81.30899811,96,NA,US,US-FL,Orlando,yes,KMCO,MCO,MCO,http://www.orlandoairports.net/,https://en.wikipedia.org/wiki/Orlando_International_Airport,"Disney World,Epcot Center"
3673,KMDW,large_airport,Chicago Midway International Airport,41.785999,-87.752403,620,NA,US,US-IL,Chicago,yes,KMDW,MDW,MDW,https://www.flychicago.com/midway/home/pages/default.aspx,https://en.wikipedia.org/wiki/Midway_International_Airport,CHI
3680,KMGE,large_airport,Dobbins Air Reserve Base,33.91540146,-84.51629639,1068,NA,US,US-GA,Marietta,no,KMGE,MGE,MGE,http://www.dobbins.afrc.af.mil/,https://en.wikipedia.org/wiki/Dobbins_Air_Reserve_Base,"Rickenbacker Field, Marietta AAF, Marietta AFB, Dobbins AFB"
3681,KMGM,large_airport,Montgomery Regional (Dannelly Field) Airport,32.30059814,-86.39399719,221,NA,US,US-AL,Montgomery,yes,KMGM,MGM,MGM,http://www.flymgm.com/,https://en.wikipedia.org/wiki/Montgomery_Regional_Airport,
3685,KMIA,large_airport,Miami International Airport,25.79319954,-80.29060364,8,NA,US,US-FL,Miami,yes,KMIA,MIA,MIA,http://www.miami-airport.com/,https://en.wikipedia.org/wiki/Miami_International_Airport,"MFW, South Florida"
3700,KMOB,large_airport,Mobile Regional Airport,30.69120026,-88.24279785,219,NA,US,US-AL,Mobile,yes,KMOB,MOB,MOB,http://www.mobairport.com/,https://en.wikipedia.org/wiki/Mobile_Regional_Airport,
3709,KMSP,large_airport,Minneapolis-St Paul International/Wold-Chamberlain Airport,44.882,-93.221802,841,NA,US,US-MN,Minneapolis,yes,KMSP,MSP,MSP,http://www.mspairport.com/,https://en.wikipedia.org/wiki/Minneapolis–Saint_Paul_International_Airport,
3715,KMUO,large_airport,Mountain Home Air Force Base,43.043598,-115.872002,2996,NA,US,US-ID,Mountain Home,no,KMUO,MUO,MUO,http://www.mountainhome.af.mil/,https://en.wikipedia.org/wiki/Mountain_Home_Air_Force_Base,
3744,KOAK,large_airport,Metropolitan Oakland International Airport,37.721298,-122.221001,9,NA,US,US-CA,Oakland,yes,KOAK,OAK,OAK,http://www.oaklandairport.com/,https://en.wikipedia.org/wiki/Oakland_International_Airport,"QSF, QBA"
3754,KORD,large_airport,Chicago O'Hare International Airport,41.9786,-87.9048,672,NA,US,US-IL,Chicago,yes,KORD,ORD,ORD,https://www.flychicago.com/ohare/home/pages/default.aspx,https://en.wikipedia.org/wiki/O'Hare_International_Airport,"CHI, Orchard Place"
3765,KPAM,large_airport,Tyndall Air Force Base,30.06959915,-85.57540131,17,NA,US,US-FL,Panama City,no,KPAM,PAM,PAM,http://www.tyndall.af.mil/,https://en.wikipedia.org/wiki/Tyndall_Air_Force_Base,
3771,KPHL,large_airport,Philadelphia International Airport,39.87189865,-75.2410965,36,NA,US,US-PA,Philadelphia,yes,KPHL,PHL,PHL,http://www.phl.org/,https://en.wikipedia.org/wiki/Philadelphia_International_Airport,
3772,KPHX,large_airport,Phoenix Sky Harbor International Airport,33.43429947,-112.012001,1135,NA,US,US-AZ,Phoenix,yes,KPHX,PHX,PHX,http://phoenix.gov/skyharborairport/,https://en.wikipedia.org/wiki/Phoenix_Sky_Harbor_International_Airport,
3852,KRND,large_airport,Randolph Air Force Base,29.52969933,-98.27890015,761,NA,US,US-TX,Universal City,no,KRND,RND,RND,http://www.military.com/base-guide/randolph-air-force-base,https://en.wikipedia.org/wiki/Randolph_Air_Force_Base,
3854,KROA,large_airport,Roanoke–Blacksburg Regional Airport,37.3255,-79.975403,1175,NA,US,US-VA,Roanoke,yes,KROA,ROA,ROA,http://www.roanokeairport.com/,https://en.wikipedia.org/wiki/Roanoke%E2%80%93Blacksburg_Regional_Airport,Woodrum Field
3858,KRSW,large_airport,Southwest Florida International Airport,26.53619957,-81.75520325,30,NA,US,US-FL,Fort Myers,yes,KRSW,RSW,RSW,http://www.flylcpa.com/,https://en.wikipedia.org/wiki/Southwest_Florida_International_Airport,
3862,KSAN,large_airport,San Diego International Airport,32.73360062,-117.1900024,17,NA,US,US-CA,San Diego,yes,KSAN,SAN,SAN,http://www.san.org/,https://en.wikipedia.org/wiki/San_Diego_International_Airport,Lindbergh Field
3873,KSDF,large_airport,Louisville International Standiford Field,38.1744,-85.736,501,NA,US,US-KY,Louisville,yes,KSDF,SDF,SDF,http://www.flylouisville.com,https://en.wikipedia.org/wiki/Louisville_International_Airport,
3875,KSEA,large_airport,Seattle Tacoma International Airport,47.449001,-122.308998,433,NA,US,US-WA,Seattle,yes,KSEA,SEA,SEA,http://www.portseattle.org/seatac/,https://en.wikipedia.org/wiki/Seattle–Tacoma_International_Airport,
3878,KSFO,large_airport,San Francisco International Airport,37.61899948,-122.375,13,NA,US,US-CA,San Francisco,yes,KSFO,SFO,SFO,http://www.flysfo.com/,https://en.wikipedia.org/wiki/San_Francisco_International_Airport,"QSF, QBA"
3883,KSJC,large_airport,Norman Y. Mineta San Jose International Airport,37.362598,-121.929001,62,NA,US,US-CA,San Jose,yes,KSJC,SJC,SJC,http://www.flysanjose.com/,https://en.wikipedia.org/wiki/San_Jose_International_Airport,"QSF, QBA"
3885,KSKA,large_airport,Fairchild Air Force Base,47.61510086,-117.6559982,2461,NA,US,US-WA,Spokane,no,KSKA,SKA,SKA,http://www.fairchild.af.mil/,https://en.wikipedia.org/wiki/Fairchild_Air_Force_Base,
3894,KSNA,large_airport,John Wayne Airport-Orange County Airport,33.67570114,-117.8679962,56,NA,US,US-CA,Santa Ana,yes,KSNA,SNA,SNA,http://www.ocair.com/,https://en.wikipedia.org/wiki/John_Wayne_Airport,"Disney, Disneyland, Orange County"
3898,KSPS,large_airport,Sheppard Air Force Base-Wichita Falls Municipal Airport,33.9888,-98.491898,1019,NA,US,US-TX,Wichita Falls,yes,KSPS,SPS,SPS,http://www.flywichitafalls.net/,https://en.wikipedia.org/wiki/Wichita_Falls_Municipal_Airport,Sheppard Air Force Base
3901,KSSC,large_airport,Shaw Air Force Base,33.97269821,-80.47059631,241,NA,US,US-SC,Sumter,no,KSSC,SSC,SSC,http://www.shaw.af.mil/,https://en.wikipedia.org/wiki/Shaw_Air_Force_Base,
3905,KSTL,large_airport,St Louis Lambert International Airport,38.748697,-90.370003,618,NA,US,US-MO,St Louis,yes,KSTL,STL,STL,https://www.flystl.com/,https://en.wikipedia.org/wiki/St._Louis_Lambert_International_Airport,Lambert St Louis
3907,KSUS,large_airport,Spirit of St Louis Airport,38.66210175,-90.65200043,463,NA,US,US-MO,St Louis,no,KSUS,SUS,SUS,http://spiritairport.com/spiritairport/index.jsp,https://en.wikipedia.org/wiki/Spirit_of_St._Louis_Airport,
3908,KSUU,large_airport,Travis Air Force Base,38.26269913,-121.927002,62,NA,US,US-CA,Fairfield,no,KSUU,SUU,SUU,http://www.travis.af.mil/,https://en.wikipedia.org/wiki/Travis_Air_Force_Base,
3909,KSUX,large_airport,Sioux Gateway Airport/Brigadier General Bud Day Field,42.402599,-96.384399,1098,NA,US,US-IA,Sioux City,yes,KSUX,SUX,SUX,https://www.sioux-city.org/government/departments-a-f/airport,https://en.wikipedia.org/wiki/Sioux_Gateway_Airport,"Col. Bud Day, Sioux City AB, Sioux City AAB"
3913,KSYR,large_airport,Syracuse Hancock International Airport,43.11119843,-76.10630035,421,NA,US,US-NY,Syracuse,yes,KSYR,SYR,SYR,http://www.syrairport.org/,https://en.wikipedia.org/wiki/Syracuse_Hancock_International_Airport,
3914,KSZL,large_airport,Whiteman Air Force Base,38.7303009,-93.54789734,870,NA,US,US-MO,Knob Noster,no,KSZL,SZL,SZL,http://www.whiteman.af.mil/,https://en.wikipedia.org/wiki/Whiteman_Air_Force_Base,Sedalia Glider Base
3921,KTIK,large_airport,Tinker Air Force Base,35.41469955,-97.38659668,1291,NA,US,US-OK,Oklahoma City,no,KTIK,TIK,TIK,http://www.tinker.af.mil/,https://en.wikipedia.org/wiki/Tinker_Air_Force_Base,Midwest Air Depot
3948,KVPS,large_airport,Destin-Ft Walton Beach Airport,30.4832,-86.525398,87,NA,US,US-FL,Valparaiso,yes,KVPS,VPS,VPS,http://www.flyvps.com/,https://en.wikipedia.org/wiki/Destin%E2%80%93Fort_Walton_Beach_Airport,Eglin AFB
3951,KWRB,large_airport,Robins Air Force Base,32.64009857,-83.59190369,294,NA,US,US-GA,Warner Robins,no,KWRB,WRB,WRB,http://www.robins.af.mil/,https://en.wikipedia.org/wiki/Robins_Air_Force_Base,
3972,LATI,large_airport,Tirana International Airport Mother Teresa,41.41469955,19.72060013,126,EU,AL,AL-11,Tirana,yes,LATI,TIA,,http://www.tirana-airport.com/,https://en.wikipedia.org/wiki/Tirana_International_Airport_N%C3%ABn%C3%AB_Tereza,"Rinas International Airport, Aeroporti Nënë Tereza"
3977,LBSF,large_airport,Sofia Airport,42.69669342,23.41143608,1742,EU,BG,BG-23,Sofia,yes,LBSF,SOF,,http://sofia-airport.bg,https://en.wikipedia.org/wiki/Sofia_Airport,
3980,LCLK,large_airport,Larnaca International Airport,34.87509918,33.62490082,8,AS,CY,CY-04,Larnarca,yes,LCLK,LCA,,http://www.cyprusairports.com.cy/showpage.php?PageID=2,https://en.wikipedia.org/wiki/Larnaca_International_Airport,Διεθνές Aεροδρόμιο Λάρνακας
3981,LCPH,large_airport,Paphos International Airport,34.7179985,32.4856987,41,AS,CY,CY-06,Paphos,yes,LCPH,PFO,,http://paphosinternationalairport.com/index_papxmas.html,https://en.wikipedia.org/wiki/Paphos_International_Airport,"Pafos, Mandria, Kouklia, Διεθνής Αερολιμένας Πάφου"
3982,LCRA,large_airport,RAF Akrotiri,34.590401,32.9879,76,EU,GB,GB-U-A,Akrotiri,no,LCRA,AKT,,http://www.raf.mod.uk/rafakrotiri/passengerinformation/,https://en.wikipedia.org/wiki/RAF_Akrotiri,"Royal Air Force,"
3997,LEAL,large_airport,Alicante International Airport,38.28219986,-0.558156013,142,EU,ES,ES-V,Alicante,yes,LEAL,ALC,,http://www.aena.es/csee/Satellite?cid=1049437849176&pagename=subHome&Language=EN_GB&SiteName=ALC&c=Page,https://en.wikipedia.org/wiki/Alicante_Airport,
4004,LEBL,large_airport,Barcelona International Airport,41.2971,2.07846,12,EU,ES,ES-CT,Barcelona,yes,LEBL,BCN,,http://www.aena.es/en/barcelona-airport/index.html,https://en.wikipedia.org/wiki/Barcelona%E2%80%93El_Prat_Airport,El Prat Airport
4019,LEMD,large_airport,Adolfo Suárez Madrid–Barajas Airport,40.471926,-3.56264,1998,EU,ES,ES-M,Madrid,yes,LEMD,MAD,,http://www.aena.es/en/passengers/passengers.html,https://en.wikipedia.org/wiki/Adolfo_Su%C3%A1rez_Madrid%E2%80%93Barajas_Airport,"Leganés, Madrid Barajas International Airport"
4035,LEPA,large_airport,Palma De Mallorca Airport,39.55170059,2.738810062,27,EU,ES,ES-PM,Palma De Mallorca,yes,LEPA,PMI,,http://www.aena.es/csee/Satellite?cid=1046276292735&pagename=subHome&Language=EN_GB&SiteName=PMI&c=Page,https://en.wikipedia.org/wiki/Son_Sant_Joan_Airport,"Son Sant Joan Airport, LESJ"
4070,LFBO,large_airport,Toulouse-Blagnac Airport,43.629101,1.36382,499,EU,FR,FR-OCC,Toulouse/Blagnac,yes,LFBO,TLS,,http://www.toulouse.aeroport.fr/,https://en.wikipedia.org/wiki/Toulouse_Blagnac_International_Airport,
4137,LFLL,large_airport,Lyon Saint-Exupéry Airport,45.725556,5.081111,821,EU,FR,FR-ARA,Lyon,yes,LFLL,LYS,,https://www.lyonaeroports.com/,https://en.wikipedia.org/wiki/Saint-Exup%C3%A9ry_International_Airport,
4185,LFPG,large_airport,Charles de Gaulle International Airport,49.012798,2.55,392,EU,FR,FR-IDF,Paris,yes,LFPG,CDG,,http://www.aeroportsdeparis.fr/,https://en.wikipedia.org/wiki/Charles_de_Gaulle_Airport,"PAR, Aéroport Roissy-Charles de Gaulle, Roissy Airport"
4226,LFSB,large_airport,EuroAirport Basel-Mulhouse-Freiburg Airport,47.59,7.529167,885,EU,FR,FR-GES,Bâle/Mulhouse,yes,LFSB,BSL,,http://www.euroairport.com/,https://en.wikipedia.org/wiki/EuroAirport_Basel-Mulhouse-Freiburg,"MLH, EAP, LSZM"
4251,LGAV,large_airport,Eleftherios Venizelos International Airport,37.93640137,23.94449997,308,EU,GR,GR-A1,Athens,yes,LGAV,ATH,,http://www.aia.gr,https://en.wikipedia.org/wiki/Athens_International_Airport,
4296,LHBP,large_airport,Budapest Liszt Ferenc International Airport,47.42976,19.261093,495,EU,HU,HU-PE,Budapest,yes,LHBP,BUD,,http://www.bud.hu/english,https://en.wikipedia.org/wiki/Budapest_Ferenc_Liszt_International_Airport,"Ferihegyi nemzetközi repülőtér, Budapest Liszt Ferenc international Airport"
4310,LIBD,large_airport,Bari Karol Wojtyła Airport,41.138901,16.760599,177,EU,IT,IT-75,Bari,yes,LIBD,BRI,BA02,http://www.seap-puglia.it/default.asp?idlingua=2&idcontenuto=25,https://en.wikipedia.org/wiki/Bari_Karol_Wojty%C5%82a_Airport,"Bari ""Karol Wojtyla"" International Airport, Palese Macchie Airport, Palese Airport"
4318,LICC,large_airport,Catania-Fontanarossa Airport,37.466801,15.0664,39,EU,IT,IT-82,Catania,yes,LICC,CTA,CT03,http://www.aeroporto.catania.it/,https://en.wikipedia.org/wiki/Catania-Fontanarossa_Airport,"Lanza Di Trabie, Catania-Fontanarossa Vincenzo Bellini"
4321,LICJ,large_airport,Falcone–Borsellino Airport,38.175999,13.091,65,EU,IT,IT-82,Palermo,yes,LICJ,PMO,PA03,http://www.gesap.it/index.php,https://en.wikipedia.org/wiki/Falcone%E2%80%93Borsellino_Airport,"Palermo Airport, Punta Raisi Airport"
4332,LIEE,large_airport,Cagliari Elmas Airport,39.251499,9.05428,13,EU,IT,IT-88,Cagliari,yes,LIEE,CAG,CA07,http://www.cagliariairport.it/en/,https://en.wikipedia.org/wiki/Cagliari_Elmas_Airport,"Cagliari Airport,Elmas"
4340,LIMC,large_airport,Malpensa International Airport,45.6306,8.72811,768,EU,IT,IT-25,Milan,yes,LIMC,MXP,MI12,http://www.sea-aeroportimilano.it/en/malpensa/index.phtml,https://en.wikipedia.org/wiki/Malpensa_Airport,MIL
4341,LIME,large_airport,Il Caravaggio International Airport,45.673901,9.70417,782,EU,IT,IT-25,Bergamo,yes,LIME,BGY,BG01,http://www.sacbo.it/,https://en.wikipedia.org/wiki/Il_Caravaggio_International_Airport,"Bergamo Orio al Serio Airport,Orio al Serio"
4342,LIMF,large_airport,Turin Airport,45.200802,7.64963,989,EU,IT,IT-21,Torino,yes,LIMF,TRN,TO11,http://www.aeroportoditorino.it/,https://en.wikipedia.org/wiki/Turin_International_Airport,"Torino-Caselle Airport, Sandro Pertini Airport, Turin-Caselle Airport"
4344,LIMJ,large_airport,Genoa Cristoforo Colombo Airport,44.4133,8.8375,13,EU,IT,IT-42,Genova,yes,LIMJ,GOA,GE01,http://www.aeroportodigenova.com/en/home/index.php,https://en.wikipedia.org/wiki/Genoa_Cristoforo_Colombo_Airport,"Genova Sestri, Sestri Cristoforo Colombo Airport, Cristoforo Colombo Airport"
4345,LIML,large_airport,Milano Linate Airport,45.445099,9.27674,353,EU,IT,IT-25,Milan,yes,LIML,LIN,MI11,http://www.sea-aeroportimilano.it/en/,https://en.wikipedia.org/wiki/Linate_Airport,E Forlanini
4354,LIPE,large_airport,Bologna Guglielmo Marconi Airport,44.5354,11.2887,123,EU,IT,IT-45,Bologna,yes,LIPE,BLQ,BO08,http://www.bologna-airport.it/?LN=UK,https://en.wikipedia.org/wiki/Bologna_Airport,"Guglielmo Marconi Airport, Borgo Panigale Airport"
4355,LIPH,large_airport,Treviso-Sant'Angelo Airport,45.648399,12.1944,59,EU,IT,IT-34,Treviso,yes,LIPH,TSF,TV01,http://www.trevisoairport.it/tsf/index.jsp?_requestid=677517&language=en,https://en.wikipedia.org/wiki/Treviso_Airport,"Venice, Antonio Canova Terminal, Treviso Airport"
4366,LIPX,large_airport,Verona Villafranca Airport,45.395699,10.8885,239,EU,IT,IT-34,Verona,yes,LIPX,VRN,VR10,http://www.aeroportoverona.it/,https://en.wikipedia.org/wiki/Verona_Airport,"Valerio Catullo, Villafranca International Airport, Valerio Catullo Airport, Villafranca Airport"
4368,LIPZ,large_airport,Venice Marco Polo Airport,45.505299,12.3519,7,EU,IT,IT-34,Venice,yes,LIPZ,VCE,VE05,http://www.veniceairport.com/core/index.jsp?_requestid=37300&language=en,https://en.wikipedia.org/wiki/Venice_Marco_Polo_Airport,Venezia Tessera
4372,LIRF,large_airport,Leonardo da Vinci–Fiumicino Airport,41.8002778,12.2388889,13,EU,IT,IT-62,Rome,yes,LIRF,FCO,RM11,http://www.adr.it/portal/portal/adr/Fiumicino/Leonardo_da_vinci/Header_Window?action=2,https://en.wikipedia.org/wiki/Leonardo_da_Vinci%E2%80%93Fiumicino_Airport,"ROM, Rome Fiumicino Airport, Fiumicino Airport"
4378,LIRN,large_airport,Naples International Airport,40.886002,14.2908,294,EU,IT,IT-72,Nápoli,yes,LIRN,NAP,NA01,http://www.portal.gesac.it/,https://en.wikipedia.org/wiki/Naples_International_Airport,"Capodichino Airport, Aeroporto di Napoli-Capodichino, Aeroporto Internazionale di Napoli"
4379,LIRP,large_airport,Pisa International Airport,43.683899,10.3927,6,EU,IT,IT-52,Pisa,yes,LIRP,PSA,PI05,http://www.pisa-airport.com/,https://en.wikipedia.org/wiki/Pisa_International_Airport,"Galileo Galilei Airport, San Giusto Airport"
4386,LJLJ,large_airport,Ljubljana Jože Pučnik Airport,46.223701,14.4576,1273,EU,SI,SI-061,Ljubljana,yes,LJLJ,LJU,,http://www.lju-airport.si/,https://en.wikipedia.org/wiki/Ljubljana_Jo%C5%BEe_Pu%C4%8Dnik_Airport,"Ljubljana, Brnik, Kranj"
4408,LKPR,large_airport,Václav Havel Airport Prague,50.1008,14.26,1247,EU,CZ,CZ-PR,Prague,yes,LKPR,PRG,,http://www.prg.aero,https://en.wikipedia.org/wiki/Ruzyn%C4%9B_International_Airport,"Letiště Praha-Ruzyně, Ruzyně International Airport, Letiště Václava Havla Praha"
4411,LLBG,large_airport,Ben Gurion International Airport,32.01139832,34.88669968,135,AS,IL,IL-M,Tel Aviv,yes,LLBG,TLV,,http://www.iaa.gov.il/Rashat/en-US/Airports/BenGurion/,https://en.wikipedia.org/wiki/Ben_Gurion_International_Airport,
4427,LMML,large_airport,Malta International Airport,35.857498,14.4775,300,EU,MT,MT-25,Valletta,yes,LMML,MLA,,http://www.maltairport.com/en/home.htm,https://en.wikipedia.org/wiki/Malta_International_Airport,"Luqa Airport,Valletta,Gudja,RAF Luqa"
4434,LOWW,large_airport,Vienna International Airport,48.11029816,16.56970024,600,EU,AT,AT-9,Vienna,yes,LOWW,VIE,,http://www.viennaairport.com/en/,https://en.wikipedia.org/wiki/Vienna_International_Airport,
4448,LPFR,large_airport,Faro Airport,37.01440048,-7.965909958,24,EU,PT,PT-08,Faro,yes,LPFR,FAO,,http://www.ana.pt/en-US/Aeroportos/algarve/Faro/Pages/HomeFaro.aspx,https://en.wikipedia.org/wiki/Faro_Airport_(Portugal),
4451,LPLA,large_airport,Lajes Airport,38.761799,-27.090799,180,EU,PT,PT-20,Praia da Vitória,yes,LPLA,TER,,http://aerogarelajes.azores.gov.pt,https://en.wikipedia.org/wiki/Lajes_Field,Terceira Island
4456,LPPD,large_airport,João Paulo II Airport,37.74119949,-25.69790077,259,EU,PT,PT-20,Ponta Delgada,yes,LPPD,PDL,,http://www.ana.pt/en-US/Aeroportos/acores/PontaDelgada/Pages/Homepage-PontaDelgada.aspx,https://en.wikipedia.org/wiki/Jo%C3%A3o_Paulo_II_Airport,
4459,LPPR,large_airport,Francisco de Sá Carneiro Airport,41.24810028,-8.681389809,228,EU,PT,PT-13,Porto,yes,LPPR,OPO,,http://www.ana.pt/en-US/Aeroportos/porto/Porto/Pages/Homepage-Porto.aspx,https://en.wikipedia.org/wiki/Francisco_S%C3%A1_Carneiro_Airport,
4461,LPPT,large_airport,Humberto Delgado Airport (Lisbon Portela Airport),38.7813,-9.13592,374,EU,PT,PT-11,Lisbon,yes,LPPT,LIS,,http://www.ana.pt/en-US/Aeroportos/lisboa/Lisboa/Pages/HomeLisboa.aspx,https://en.wikipedia.org/wiki/Lisbon_Portela_Airport,Lisboa
4469,LQSA,large_airport,Sarajevo International Airport,43.82460022,18.3314991,1708,EU,BA,BA-BIH,Sarajevo,yes,LQSA,SJJ,,http://www.sarajevo-airport.ba/,https://en.wikipedia.org/wiki/Sarajevo_International_Airport,
4482,LROP,large_airport,Henri Coandă International Airport,44.5711111,26.085,314,EU,RO,RO-B,Bucharest,yes,LROP,OTP,,http://www.bucharestairports.ro/en/,https://en.wikipedia.org/wiki/Henri_Coand%C4%83_International_Airport,"BUH, Otopeni Airport, RoAF 90th Airlift Base"
4490,LSGG,large_airport,Geneva Cointrin International Airport,46.23809814,6.108950138,1411,EU,CH,CH-GE,Geneva,yes,LSGG,GVA,,http://www.gva.ch/,https://en.wikipedia.org/wiki/Geneva_Cointrin_International_Airport,
4505,LSZH,large_airport,Zürich Airport,47.464699,8.54917,1416,EU,CH,CH-ZH,Zurich,yes,LSZH,ZRH,,http://www.zurich-airport.com/,https://en.wikipedia.org/wiki/Zurich_Airport,
4515,LTAI,large_airport,Antalya International Airport,36.898701,30.800501,177,AS,TR,TR-07,Antalya,yes,LTAI,AYT,,http://www.antalya.dhmi.gov.tr/havaalanlari/default.aspx?hv=4,https://en.wikipedia.org/wiki/Antalya_Airport,
4528,LTBA,large_airport,Atatürk International Airport,40.976898,28.8146,163,AS,TR,TR-34,Istanbul,yes,LTBA,ISL,,http://www.ataturkairport.com/eng/,https://en.wikipedia.org/wiki/Atat%C3%BCrk_International_Airport,"Ataturk, Yeşilköy, Yesilkoy"
4533,LTBJ,large_airport,Adnan Menderes International Airport,38.29240036,27.15699959,412,AS,TR,TR-35,İzmir,yes,LTBJ,ADB,,http://www.adnanmenderesairport.com,https://en.wikipedia.org/wiki/Adnan_Menderes_Airport,
4565,LTFC,large_airport,Süleyman Demirel International Airport,37.85540009,30.36840057,2835,AS,TR,TR-32,Isparta,yes,LTFC,ISE,,http://www.dhmi.gov.tr/dosyalar/limanvemeydanlar/sdemirel/sdemirel.asp,https://en.wikipedia.org/wiki/S%C3%BCleyman_Demirel_Airport,
4569,LTFJ,large_airport,Sabiha Gökçen International Airport,40.89860153,29.30920029,312,AS,TR,TR-34,Istanbul,yes,LTFJ,SAW,,http://www.sgairport.com/,https://en.wikipedia.org/wiki/Sabiha_G%C3%B6k%C3%A7en_International_Airport,Sabiha Gökçen Havalimanı
317457,LTFM,large_airport,Istanbul Airport,41.275278,28.751944,325,AS,TR,TR-34,Istanbul,yes,LTFM,IST,,http://www.igairport.com/en,https://en.wikipedia.org/wiki/Istanbul_New_Airport,
4573,LWSK,large_airport,Skopje Alexander the Great Airport,41.961601,21.621401,781,EU,MK,MK-004,Skopje,yes,LWSK,SKP,,http://skp.airports.com.mk/,https://en.wikipedia.org/wiki/Skopje_Airport,
4610,LYBE,large_airport,Belgrade Nikola Tesla Airport,44.81840134,20.3090992,335,EU,RS,RS-00,Belgrade,yes,LYBE,BEG,,http://www.beg.aero/,https://en.wikipedia.org/wiki/Belgrade_Nikola_Tesla_Airport,"Beograd, Surčin Airport"
4613,LYPG,large_airport,Podgorica Airport,42.359402,19.2519,141,EU,ME,ME-16,Podgorica,yes,LYPG,TGD,,http://www.montenegroairports.com/?menu=2,https://en.wikipedia.org/wiki/Podgorica_Airport,"Podgorica Airbase, Golubovci Airbase, Аеродром Подгорица, Aerodrom Podgorica"
4638,MDSD,large_airport,Las Américas International Airport,18.42970085,-69.66889954,59,NA,DO,DO-01,Santo Domingo,yes,MDSD,SDQ,,http://www.aerodom.com/app/do/lasamericas.aspx,https://en.wikipedia.org/wiki/Las_Am%C3%A9ricas_International_Airport,"Aeropuerto Internacional de Las Américas, José Francisco Peña Gómez Intl"
4731,MMMX,large_airport,Licenciado Benito Juarez International Airport,19.4363,-99.072098,7316,NA,MX,MX-DIF,Mexico City,yes,MMMX,MEX,ME1,https://www.aicm.com.mx,https://en.wikipedia.org/wiki/Mexico_City_International_Airport,AICM
4745,MMPR,large_airport,Licenciado Gustavo Díaz Ordaz International Airport,20.68009949,-105.2539978,23,NA,MX,MX-JAL,Puerto Vallarta,yes,MMPR,PVR,,http://vallarta.aeropuertosgap.com.mx/index.php?lang=eng,https://en.wikipedia.org/wiki/Lic._Gustavo_D%C3%ADaz_Ordaz_International_Airport,
4750,MMSD,large_airport,Los Cabos International Airport,23.15180016,-109.7210007,374,NA,MX,MX-BCS,San José del Cabo,yes,MMSD,SJD,,http://loscabos.aeropuertosgap.com.mx/index.php?lang=eng,https://en.wikipedia.org/wiki/Los_Cabos_International_Airport,
4757,MMTJ,large_airport,General Abelardo L. Rodríguez International Airport,32.54109955,-116.9700012,489,NA,MX,MX-BCN,Tijuana,yes,MMTJ,TIJ,,http://aeropuertosgap.com.mx/english/airports/tijuana-airport,https://en.wikipedia.org/wiki/General_Abelardo_L._Rodr%C3%ADguez_International_Airport,
4762,MMUN,large_airport,Cancún International Airport,21.03650093,-86.87709808,22,NA,MX,MX-ROO,Cancún,yes,MMUN,CUN,,http://www.asur.com.mx/asur/ingles/aeropuertos/cancun/cancun.asp,https://en.wikipedia.org/wiki/Canc%C3%BAn_International_Airport,
4951,MYNN,large_airport,Lynden Pindling International Airport,25.039,-77.466202,16,NA,BS,BS-NP,Nassau,yes,MYNN,NAS,,http://www.nas.bs/,https://en.wikipedia.org/wiki/Lynden_Pindling_International_Airport,Nassau International Airport
4956,MZBZ,large_airport,Philip S. W. Goldson International Airport,17.53910065,-88.30819702,15,NA,BZ,BZ-BZ,Belize City,yes,MZBZ,BZE,,http://www.pgiabelize.com/,https://en.wikipedia.org/wiki/Philip_S._W._Goldson_International_Airport,"Belize International, Ladyville"
5023,NZAA,large_airport,Auckland International Airport,-37.0080986,174.7920074,23,OC,NZ,NZ-AUK,Auckland,yes,NZAA,AKL,,http://www.auckland-airport.co.nz/,https://en.wikipedia.org/wiki/Auckland_International_Airport,
5026,NZCH,large_airport,Christchurch International Airport,-43.48939896,172.5319977,123,OC,NZ,NZ-CAN,Christchurch,yes,NZCH,CHC,,http://www.christchurchairport.co.nz/,https://en.wikipedia.org/wiki/Christchurch_International_Airport,
5063,NZWN,large_airport,Wellington International Airport,-41.32720184,174.8049927,41,OC,NZ,NZ-WGN,Wellington,yes,NZWN,WLG,,http://www.wellingtonairport.co.nz/,https://en.wikipedia.org/wiki/Wellington_International_Airport,
5079,OBBI,large_airport,Bahrain International Airport,26.27079964,50.63359833,6,AS,BH,BH-15,Manama,yes,OBBI,BAH,,http://www.bahrainairport.com/,https://en.wikipedia.org/wiki/Bahrain_International_Airport,مطار البحرين الدولي
5097,OEJN,large_airport,King Abdulaziz International Airport,21.6796,39.156502,48,AS,SA,SA-02,Jeddah,yes,OEJN,JED,,http://www.jed-airport.com/,https://en.wikipedia.org/wiki/King_Abdulaziz_International_Airport,"Mecca, Hajj"
5101,OEMA,large_airport,Prince Mohammad Bin Abdulaziz Airport,24.5534,39.705101,2151,AS,SA,SA-03,Medina,yes,OEMA,MED,,http://www.tibahairports.com/en-EN/Pages/Main.aspx,https://en.wikipedia.org/wiki/Prince_Mohammad_Bin_Abdulaziz_Airport,Medinah
5166,OIIE,large_airport,Imam Khomeini International Airport,35.41609955,51.15219879,3305,AS,IR,IR-07,Tehran,yes,OIIE,IKA,,http://www.ikia.ir/,https://en.wikipedia.org/wiki/Imam_Khomeini_International_Airport,Ahmadabad
5197,OISS,large_airport,Shiraz Shahid Dastghaib International Airport,29.53919983,52.58980179,4920,AS,IR,IR-14,Shiraz,yes,OISS,SYZ,,http://shirazairport.ir/,https://en.wikipedia.org/wiki/Shiraz_International_Airport,
5204,OITT,large_airport,Tabriz International Airport,38.13389969,46.23500061,4459,AS,IR,IR-01,Tabriz,yes,OITT,TBZ,,http://www.tabrizairport.ir/,https://en.wikipedia.org/wiki/Tabriz_International_Airport,IRIAF
5220,OKBK,large_airport,Kuwait International Airport,29.22660065,47.96889877,206,AS,KW,KW-FA,Kuwait City,yes,OKBK,KWI,,http://www.kuwait-airport.com.kw/Index_e.htm,https://en.wikipedia.org/wiki/Kuwait_International_Airport,Al Mubarak Air Base
5222,OLBA,large_airport,Beirut Rafic Hariri International Airport,33.82089996,35.48839951,87,AS,LB,LB-JL,Beirut,yes,OLBA,BEY,,http://www.beirutairport.gov.lb/,https://en.wikipedia.org/wiki/Beirut_Rafic_Hariri_International_Airport,"Chaldea, Beirut Air Base, مطار بيروت رفيق الحريري الدولي"
299738,OM-0003,large_airport,Duqm International Airport,19.501944,57.634167,364,AS,OM,OM-WU,Duqm,yes,OODQ,DQM,,http://www.omanairports.com/,https://en.wikipedia.org/wiki/Duqm_Jaaluni_Airport,
5226,OMAA,large_airport,Abu Dhabi International Airport,24.43300056,54.65110016,88,AS,AE,AE-AZ,Abu Dhabi,yes,OMAA,AUH,,http://www.abudhabiairport.ae/,https://en.wikipedia.org/wiki/Abu_Dhabi_International_Airport,
5235,OMDB,large_airport,Dubai International Airport,25.25279999,55.36439896,62,AS,AE,AE-DU,Dubai,yes,OMDB,DXB,,http://www.dubaiairport.com/dia/english/home/,https://en.wikipedia.org/wiki/Dubai_International_Airport,مطار دبي الدولي‎
5302,OSAP,large_airport,Aleppo International Airport,36.18069839,37.22439957,1276,AS,SY,SY-HL,Aleppo,yes,OSAP,ALP,,http://www.aleppo-airport.com/en/,https://en.wikipedia.org/wiki/Aleppo_International_Airport,مطار حلب الدولي
5433,PGUM,large_airport,Antonio B. Won Pat International Airport,13.48340034,144.7960052,298,OC,GU,GU-U-A,"Hagåtña, Guam International Airport",yes,PGUM,GUM,GUM,http://www.guamairport.com/,https://en.wikipedia.org/wiki/Antonio_B._Won_Pat_International_Airport,Agana
308633,PH-0001,large_airport,Laguindingan Airport,8.612203,124.456496,190,AS,PH,PH-MSR,Cagayan de Oro City,yes,RPMY,CGY,,http://laguindinganinternationalairport.com/,https://en.wikipedia.org/wiki/Laguindingan_International_Airport,"CGY,Laguindingan,IGN,RPML"
5453,PHNL,large_airport,Daniel K Inouye International Airport,21.32062,-157.924228,13,NA,US,US-HI,Honolulu,yes,PHNL,HNL,HNL,http://airports.hawaii.gov/hnl/,https://en.wikipedia.org/wiki/Daniel_K._Inouye_International_Airport,"Hickam Air Force Base, HIK, PHIK, KHNL, Honolulu International"
30601,PK-0001,large_airport,New Islamabad International Airport,33.560713,72.851613,1646,AS,PK,PK-PB,Islamabad,yes,OPIS,ISB,OPIS,http://www.niia.com.pk/,https://en.wikipedia.org/wiki/New_Islamabad_International_Airport,"Fateh Jang, Gandhara"
44686,QA-0001,large_airport,Hamad International Airport,25.273056,51.608056,13,AS,QA,QA-DA,Doha,yes,OTHH,DOH,,http://dohahamadairport.com/,https://en.wikipedia.org/wiki/Hamad_International_Airport,New Doha International Airport
5510,RCBS,large_airport,Kinmen Airport,24.4279,118.359001,93,AS,TW,TW-X-KM,Shang-I,yes,RCBS,KNH,,http://www.kma.gov.tw/,https://en.wikipedia.org/wiki/Kinmen_Airport,"Shang Yi Airport, 金門尚義機場, 金门尚义机场, Jīnmén Shàngyì jīchǎng"
5516,RCKH,large_airport,Kaohsiung International Airport,22.57710075,120.3499985,31,AS,TW,TW-KHH,Kaohsiung City,yes,RCKH,KHH,,http://www.kia.gov.tw/english/e_index.asp,https://en.wikipedia.org/wiki/Kaohsiung_International_Airport,"Siaogang International Airport, 高雄國際航空站, 小港國際機場"
5528,RCTP,large_airport,Taiwan Taoyuan International Airport,25.0777,121.233002,106,AS,TW,TW-TAO,Taipei,yes,RCTP,TPE,,http://www.taoyuan-airport.com/,https://zh.wikipedia.org/wiki/%E8%87%BA%E7%81%A3%E6%A1%83%E5%9C%92%E5%9C%8B%E9%9A%9B%E6%A9%9F%E5%A0%B4,"Taiwan Taoyuan International Airport, 臺灣桃園國際機場"
5536,RJBB,large_airport,Kansai International Airport,34.4272995,135.2440033,26,AS,JP,JP-27,Osaka,yes,RJBB,KIX,,http://www.kansai-airport.or.jp/en/index.asp,https://en.wikipedia.org/wiki/Kansai_International_Airport,OSA
5544,RJCC,large_airport,New Chitose Airport,42.77519989,141.6920013,82,AS,JP,JP-01,Chitose / Tomakomai,yes,RJCC,CTS,,http://www.new-chitose-airport.jp/language/english/,https://en.wikipedia.org/wiki/New_Chitose_Airport,
5564,RJFF,large_airport,Fukuoka Airport,33.58589935,130.451004,32,AS,JP,JP-40,Fukuoka,yes,RJFF,FUK,,http://www.fuk-ab.co.jp/english/frame_index.html,https://en.wikipedia.org/wiki/Fukuoka_Airport,Itazuke Air Base
299238,rjns,large_airport,Mt. Fuji Shizuoka Airport,34.79604347,138.1877518,433,AS,JP,JP-22,Makinohara / Shimada,yes,RJNS,FSZ,,http://www.mtfuji-shizuokaairport.jp/english/index.html,https://en.wikipedia.org/wiki/Shizuoka_Airport,
5627,RJTT,large_airport,Tokyo Haneda International Airport,35.552299,139.779999,35,AS,JP,JP-13,Tokyo,yes,RJTT,HND,,http://www.haneda-airport.jp/,https://en.wikipedia.org/wiki/Tokyo_International_Airport,"TYO, Haneda"
302303,RKJB,large_airport,Muan International Airport,34.991406,126.382814,35,AS,KR,KR-46,Piseo-ri (Muan),yes,RKJB,MWX,,http://muan.airport.co.kr/doc/muan_eng/,https://en.wikipedia.org/wiki/Muan_International_Airport,"Gwangju, Mokpo, Muan, MWX, RKJB"
5642,RKPK,large_airport,Gimhae International Airport,35.17950058,128.9380035,6,AS,KR,KR-26,Busan,yes,RKPK,PUS,,http://gimhae.airport.co.kr/eng/index.jsp,https://en.wikipedia.org/wiki/Gimhae_International_Airport,"Kimhae, Pusan"
5656,RKSS,large_airport,Gimpo International Airport,37.5583,126.791,59,AS,KR,KR-11,Seoul,yes,RKSS,GMP,,http://gimpo.airport.co.kr/eng/index.jsp,https://en.wikipedia.org/wiki/Gimpo_International_Airport,
5663,RKTU,large_airport,Cheongju International Airport/Cheongju Air Base (K-59/G-513),36.717008,127.498741,191,AS,KR,KR-43,Cheongju,yes,RKTU,CJJ,,http://cheongju.airport.co.kr/doc/cheongju_eng/,https://en.wikipedia.org/wiki/Cheongju_Airport,
5671,ROAH,large_airport,Naha Airport,26.19580078,127.6460037,12,AS,JP,JP-47,Naha,yes,ROAH,OKA,,http://www.naha-airport.co.jp/,https://en.wikipedia.org/wiki/Naha_Airport,"那覇空港, Naha Kūkō?, AHA, Naha AFB"
5687,RPLC,large_airport,Diosdado Macapagal International Airport,15.186,120.559998,484,AS,PH,PH-PAM,Angeles/Mabalacat,yes,RPLC,CRK,,http://www.clarkairport.com/,https://en.wikipedia.org/wiki/Diosdado_Macapagal_International_Airport,"Clark International Airport, Paliparang Pandaigdig ng Diosdado Macapagal, Clark Air Base"
5742,RPVM,large_airport,Mactan Cebu International Airport,10.30749989,123.9789963,31,AS,PH,PH-CEB,Lapu-Lapu City,yes,RPVM,CEB,,http://www.mactan-cebuairport.com.ph/,https://en.wikipedia.org/wiki/Mactan-Cebu_International_Airport,
5781,SAEZ,large_airport,Ministro Pistarini International Airport,-34.8222,-58.5358,67,SA,AR,AR-B,Buenos Aires,yes,SAEZ,EZE,EZE,http://www.aa2000.com.ar/index.php,https://en.wikipedia.org/wiki/Ministro_Pistarini_International_Airport,BUE
5867,SBBE,large_airport,Val de Cans/Júlio Cezar Ribeiro International Airport,-1.37925005,-48.47629929,54,SA,BR,BR-PA,Belém,yes,SBBE,BEL,,http://www.infraero.gov.br/index.php/br/aeroportos/para/aeroporto-internacional-de-belem.html,https://en.wikipedia.org/wiki/Val_de_Cans_International_Airport,
5872,SBBR,large_airport,Presidente Juscelino Kubistschek International Airport,-15.86916733,-47.92083359,3497,SA,BR,BR-DF,Brasília,yes,SBBR,BSB,,http://www.infraero.gov.br/usa/aero_prev_home.php?ai=146,https://en.wikipedia.org/wiki/Bras%C3%ADlia_International_Airport,http://www.infraero.gov.br/usa/aero_prev_home.php?ai=146
5882,SBCF,large_airport,Tancredo Neves International Airport,-19.62444305,-43.9719429,2715,SA,BR,BR-MG,Belo Horizonte,yes,SBCF,CNF,,http://www.infraero.gov.br/usa/aero_prev_home.php?ai=207,https://en.wikipedia.org/wiki/Tancredo_Neves_International_Airport,http://www.infraero.gov.br/usa/aero_prev_home.php?ai=207
5897,SBEG,large_airport,Eduardo Gomes International Airport,-3.03861,-60.049702,264,SA,BR,BR-AM,Manaus,yes,SBEG,MAO,,https://www4.infraero.gov.br/aeroportos/aeroporto-internacional-de-manaus-eduardo-gomes/,https://en.wikipedia.org/wiki/Eduardo_Gomes_International_Airport,
5901,SBFL,large_airport,Hercílio Luz International Airport,-27.67027855,-48.55250168,16,SA,BR,BR-SC,Florianópolis,yes,SBFL,FLN,,http://www.infraero.gov.br/usa/aero_prev_home.php?ai=228,https://en.wikipedia.org/wiki/Herc%C3%ADlio_Luz_International_Airport,http://www.infraero.gov.br/usa/aero_prev_home.php?ai=228
313262,SBSG,large_airport,Governador Aluízio Alves International Airport,-5.768056,-35.376111,272,SA,BR,BR-RN,Natal,yes,SBSG,NAT,,http://www.natal.aero,https://en.wikipedia.org/wiki/Greater_Natal_International_Airport,"Natal, Greater Natal International Airport,  Augusto Severo International Airport"
5974,SBSP,large_airport,Congonhas Airport,-23.62611008,-46.65638733,2631,SA,BR,BR-SP,São Paulo,yes,SBSP,CGH,,http://www.infraero.gov.br/usa/aero_prev_home.php?ai=219,https://en.wikipedia.org/wiki/Congonhas-S%C3%A3o_Paulo_International_Airport,http://www.infraero.gov.br/usa/aero_prev_home.php?ai=219
6015,SCEL,large_airport,Comodoro Arturo Merino Benítez International Airport,-33.39300156,-70.78579712,1555,SA,CL,CL-RM,Santiago,yes,SCEL,SCL,,http://www.aeropuertosantiago.cl/ingles/index.php,https://en.wikipedia.org/wiki/Comodoro_Arturo_Merino_Ben%C3%ADtez_International_Airport,
6217,SPIM,large_airport,Jorge Chávez International Airport,-12.0219,-77.114305,113,SA,PE,PE-LIM,Lima,yes,SPJC,LIM,,http://www.lap.com.pe/,https://en.wikipedia.org/wiki/Jorge_Ch%C3%A1vez_International_Airport,SPIM
6243,SPZO,large_airport,Alejandro Velasco Astete International Airport,-13.53569984,-71.938797,10860,SA,PE,PE-CUS,Cusco,yes,SPZO,CUZ,,http://www.corpac.gob.pe/,https://en.wikipedia.org/wiki/Alejandro_Velasco_Astete_International_Airport,
6255,SVBC,large_airport,General José Antonio Anzoategui International Airport,10.111111,-64.692222,30,SA,VE,VE-B,Barcelona,yes,SVBC,BLA,,http://aigdjaa.baer.gob.ve,https://en.wikipedia.org/wiki/General_Jos%C3%A9_Antonio_Anzo%C3%A1tegui_International_Airport,"Barcelona, Puero La Cruz,Lecheria"
6300,SVMI,large_airport,Simón Bolívar International Airport,10.601194,-66.991222,234,SA,VE,VE-X,Caracas,yes,SVMI,CCS,,http://www.aeropuerto-maiquetia.com.ve/web/,https://en.wikipedia.org/wiki/Sim%C3%B3n_Bol%C3%ADvar_International_Airport,"Maiquetía ""Simón Bolívar"" International Airport"
6366,TFFR,large_airport,Pointe-à-Pitre Le Raizet,16.265301,-61.531799,36,NA,GP,GP-U-A,Pointe-à-Pitre,yes,TFFR,PTP,,http://www.guadeloupe.aeroport.fr/,https://en.wikipedia.org/wiki/Pointe-%C3%A0-Pitre_International_Airport,"Le Raizet, Les Abymes"
44483,TN-0002,large_airport,Enfidha - Hammamet International Airport,36.075833,10.438611,21,AF,TN,TN-51,Enfidha,yes,DTNH,NBE,DTNH,http://www.enfidhahammametairport.com/,https://en.wikipedia.org/wiki/Enfidha_%E2%80%93_Hammamet_International_Airport,DTNH
6440,UBBB,large_airport,Heydar Aliyev International Airport,40.46749878,50.04669952,10,AS,AZ,AZ-BA,Baku,yes,UBBB,GYD,,http://www.airport-baku.com/,https://en.wikipedia.org/wiki/Heydar_Aliyev_International_Airport,"BAK, Bina International Airport, Heydər Əliyev adına beynəlxalq hava limanı"
6446,UDYZ,large_airport,Zvartnots International Airport,40.14730072,44.39590073,2838,AS,AM,AM-ER,Yerevan,yes,UDYZ,EVN,,http://www.aia-zvartnots.aero/,https://en.wikipedia.org/wiki/Zvartnots_International_Airport,"UGEE, Erevan Airport, Erivan Airport, Аэропорт Звартноц, Аэропорт Ереван"
6453,UGTB,large_airport,Tbilisi International Airport,41.6692009,44.95470047,1624,AS,GE,GE-TB,Tbilisi,yes,UGTB,TBS,,http://www.tbilisiairport.com/,https://en.wikipedia.org/wiki/Tbilisi_International_Airport,თბილისის საერთაშორისო აეროპორტი
6455,UHHH,large_airport,Khabarovsk-Novy Airport,48.52799988,135.1880035,244,AS,RU,RU-KHA,Khabarovsk,yes,UHHH,KHV,,http://airkhv.ru/,https://en.wikipedia.org/wiki/Khabarovsk_Novy_Airport,Аэропорт Хабаровск-Новый
6467,UKBB,large_airport,Boryspil International Airport,50.34500122,30.8946991,427,EU,UA,UA-32,Kiev,yes,UKBB,KBP,,http://www.airport-borispol.kiev.ua/,https://en.wikipedia.org/wiki/Boryspil_International_Airport,"Borispol, Міжнародний аеропорт ""Бориспіль"""
6474,UKFF,large_airport,Simferopol International Airport,45.05220032,33.97510147,639,EU,UA,UA-43,Simferopol,yes,UKFF,SIP,,http://www.airport.crimea.ua/,https://en.wikipedia.org/wiki/Simferopol_International_Airport,"Міжнародний аеропорт ""Сімферополь"""
6476,UKHH,large_airport,Kharkiv International Airport,49.92480087,36.29000092,508,EU,UA,UA-63,Kharkiv,yes,UKHH,HRK,,http://www.airport.kharkov.ua/,https://en.wikipedia.org/wiki/Kharkiv_International_Airport,"Osnova International Airport, Міжнародний аеропорт ""Харків"""
6487,UKOO,large_airport,Odessa International Airport,46.42679977,30.67650032,172,EU,UA,UA-51,Odessa,yes,UKOO,ODS,,http://www.airport.od.ua/,https://en.wikipedia.org/wiki/Odessa_International_Airport,"Odesa Central, Міжнародний аеропорт Одеса"
6489,ULLI,large_airport,Pulkovo Airport,59.8003006,30.26250076,78,EU,RU,RU-SPE,St. Petersburg,yes,ULLI,LED,,http://www.pulkovoairport.ru/,https://en.wikipedia.org/wiki/Pulkovo_Airport,"Аэропо́рт Пу́лково, Leningrad, Shosseynaya Airport, Saint Petersburg, Petrograd"
6501,UMMS,large_airport,Minsk National Airport,53.88249969,28.03070068,670,EU,BY,BY-MI,Minsk,yes,UMMS,MSQ,,http://airport.by/en,https://en.wikipedia.org/wiki/Minsk_National_Airport,"Нацыянальны аэрапорт, Minsk 2 Airport"
6506,UNKL,large_airport,Yemelyanovo Airport,56.172901,92.493301,942,EU,RU,RU-KYA,Krasnoyarsk,yes,UNKL,KJA,,http://www.kja.aero,https://en.wikipedia.org/wiki/Krasnoyarsk_Yemelyanovo_Airport,
6507,UNNT,large_airport,Tolmachevo Airport,55.01259995,82.65070343,365,AS,RU,RU-NVS,Novosibirsk,yes,UNNT,OVB,,http://eng.tolmachevo.ru/,https://en.wikipedia.org/wiki/Tolmachevo_Airport,
6519,URSS,large_airport,Sochi International Airport,43.449902,39.9566,89,EU,RU,RU-KDA,Sochi,yes,URSS,AER,,http://basel.aero/en/sochi/,https://en.wikipedia.org/wiki/Sochi_International_Airport,"Adler Airport, Black Sea, Международный Аэропорт Сочи"
26378,USSS,large_airport,Koltsovo Airport,56.74309921,60.80270004,764,AS,RU,RU-SVE,Yekaterinburg,yes,USSS,SVX,,http://www.koltsovo.ru/en/,https://en.wikipedia.org/wiki/Koltsovo_Airport,
42967,UUBW,large_airport,Zhukovsky International Airport,55.553299,38.150002,377,EU,RU,RU-MOS,Moscow,yes,UUBW,ZIA,,http://zia.aero/,https://en.wikipedia.org/wiki/Zhukovsky_International_Airport,"Аэропорт Раменское, Zhukovsky Air Base, Gromov Flight Research Institute, Лётно-исследовательский институт имени М. М. Громова, ЛИИ"
26394,UUDD,large_airport,Domodedovo International Airport,55.40879822,37.90629959,588,EU,RU,RU-MOS,Moscow,yes,UUDD,DME,,http://www.domodedovo.ru/en/,https://en.wikipedia.org/wiki/Domodedovo_International_Airport,"MOW, Аэропорт Домоде́дово"
26396,UUEE,large_airport,Sheremetyevo International Airport,55.972599,37.4146,622,EU,RU,RU-MOS,Moscow,yes,UUEE,SVO,,http://www.svo.aero/en/,https://en.wikipedia.org/wiki/Sheremetyevo_International_Airport,"MOW, Международный аэропорт Шереметьево, svo, sheremetyevo, moscow"
26401,UUWW,large_airport,Vnukovo International Airport,55.59149933,37.26150131,685,EU,RU,RU-MOS,Moscow,yes,UUWW,VKO,,http://www.vnukovo.ru/eng,https://en.wikipedia.org/wiki/Vnukovo_International_Airport,"MOW, Международный аэропорт Внуково"
26404,UWKD,large_airport,Kazan International Airport,55.60620117,49.27870178,411,EU,RU,RU-TA,Kazan,yes,UWKD,KZN,,http://www.kazan.aero/en/,https://en.wikipedia.org/wiki/Kazan_International_Airport,
26411,UWUU,large_airport,Ufa International Airport,54.55749893,55.87440109,449,EU,RU,RU-BA,Ufa,yes,UWUU,UFA,,http://www.airportufa.ru/en/,https://en.wikipedia.org/wiki/Ufa_International_Airport,Международный аэропорт Уфа
26412,UWWW,large_airport,Kurumoch International Airport,53.50490189,50.16429901,477,EU,RU,RU-SAM,Samara,yes,UWWW,KUF,,http://airport.samara.ru/en/,https://en.wikipedia.org/wiki/Kurumoch_International_Airport,
26434,VABB,large_airport,Chhatrapati Shivaji International Airport,19.08869934,72.86789703,39,AS,IN,IN-MM,Mumbai,yes,VABB,BOM,,http://www.csia.in/,https://en.wikipedia.org/wiki/Chhatrapati_Shivaji_International_Airport,"Bombay, Sahar International Airport"
26463,VCBI,large_airport,Bandaranaike International Colombo Airport,7.180759907,79.88410187,30,AS,LK,LK-1,Colombo,yes,VCBI,CMB,,http://www.airport.lk/,https://en.wikipedia.org/wiki/Bandaranaike_International_Airport,"RAF Negombo, Katunayake International Airport"
309579,VCRI,large_airport,Mattala Rajapaksa International Airport,6.284467,81.124128,157,AS,LK,LK-3,,yes,VCRI,HRI,VCRI,http://www.mria.lk/,https://en.wikipedia.org/wiki/Mattala_Rajapaksa_International_Airport,Hambantota International Airport
26475,VDPP,large_airport,Phnom Penh International Airport,11.54660034,104.8440018,40,AS,KH,KH-8,Phnom Penh,yes,VDPP,PNH,,http://www.cambodia-airports.com/phnompenh/en/,https://en.wikipedia.org/wiki/Phnom_Penh_International_Airport,Pochentong International Airport
26476,VDSR,large_airport,Siem Reap International Airport,13.41069984,103.8130035,60,AS,KH,KH-17,Siem Reap,yes,VDSR,REP,,http://www.cambodia-airports.com/siemreap/en,https://en.wikipedia.org/wiki/Siem_Reap_International_Airport,Angkor International Airport
26535,VHHH,large_airport,Hong Kong International Airport,22.308901,113.915001,28,AS,HK,HK-U-A,Hong Kong,yes,VHHH,HKG,,http://www.hongkongairport.com/,https://en.wikipedia.org/wiki/Hong_Kong_International_Airport,"Chek Lap Kok Airport, 赤鱲角機場"
26540,VIAR,large_airport,Sri Guru Ram Dass Jee International Airport,31.70960045,74.79730225,756,AS,IN,IN-PB,Amritsar,yes,VIAR,ATQ,,http://www.aai.aero/allAirports/amritsar_generalinfo.jsp,https://en.wikipedia.org/wiki/Sri_Guru_Ram_Dass_Jee_International_Airport,Amritsar Air Force Station
26555,VIDP,large_airport,Indira Gandhi International Airport,28.5665,77.103104,777,AS,IN,IN-DL,New Delhi,yes,VIDP,DEL,,http://www.newdelhiairport.in/,https://en.wikipedia.org/wiki/Indira_Gandhi_International_Airport,Palam Air Force Station
26589,VMMC,large_airport,Macau International Airport,22.149599,113.592003,20,AS,MO,MO-U-A,Macau,yes,VMMC,MFM,,http://www.macau-airport.gov.mo/en/index.php,https://en.wikipedia.org/wiki/Macau_International_Airport,澳門國際機場
26596,VNKT,large_airport,Tribhuvan International Airport,27.6966,85.3591,4390,AS,NP,NP-BA,Kathmandu,yes,VNKT,KTM,,http://www.tiairport.com.np/index.php,https://en.wikipedia.org/wiki/Tribhuvan_International_Airport,gaucharan
35145,VOBL,large_airport,Kempegowda International Airport,13.1979,77.706299,3000,AS,IN,IN-KA,Bangalore,yes,VOBL,BLR,,http://www.bengaluruairport.com/home/home.jspx,https://en.wikipedia.org/wiki/Kempegowda_International_Airport,
26609,VOCI,large_airport,Cochin International Airport,10.152,76.401901,30,AS,IN,IN-KL,Kochi,yes,VOCI,COK,,http://www.cochin-airport.com/,https://en.wikipedia.org/wiki/Cochin_International_Airport,Cochin
35141,VOHS,large_airport,Rajiv Gandhi International Airport,17.23131752,78.42985535,2024,AS,IN,IN-TG,Hyderabad,yes,VOHS,HYD,,http://www.shamshabadairport.com/,https://en.wikipedia.org/wiki/Rajiv_Gandhi_International_Airport,"Shamshabad, Hyderabad"
26636,VRMM,large_airport,Malé International Airport,4.191830158,73.52909851,6,AS,MV,MV-MLE,Malé,yes,VRMM,MLE,,http://www.airports.com.mv/,https://en.wikipedia.org/wiki/Mal%C3%A9_International_Airport,
26638,VTBD,large_airport,Don Mueang International Airport,13.91259956,100.6070023,9,AS,TH,TH-10,Bangkok,yes,VTBD,DMK,,http://www2.airportthai.co.th/airportnew/bangkok/index.asp?lang=en,https://en.wikipedia.org/wiki/Don_Mueang_International_Airport,"Old Bangkok International Airport, Don Muang Royal Thai Air Force Base"
26708,VVTS,large_airport,Tan Son Nhat International Airport,10.81879997,106.6520004,33,AS,VN,VN-23,Ho Chi Minh City,yes,VVTS,SGN,,http://www.tsnairport.hochiminhcity.gov.vn/,https://en.wikipedia.org/wiki/Tan_Son_Nhat_International_Airport,"Tansonnhat, Sài Gòn, Saigon, Sân bay Quốc tế Tân Sơn Nhất"
26744,VYYY,large_airport,Yangon International Airport,16.90730095,96.1332016,109,AS,MM,MM-06,Yangon,yes,VYYY,RGN,,http://www.yangonairportonline.com,https://en.wikipedia.org/wiki/Yangon_International_Airport,Rangoon
26751,WADD,large_airport,Ngurah Rai (Bali) International Airport,-8.748169899,115.1669998,14,AS,ID,ID-BA,Denpasar-Bali Island,yes,WADD,DPS,,http://www.angkasapura1.co.id/eng/location/bali.htm,https://en.wikipedia.org/wiki/Ngurah_Rai_Airport,WRRR
26789,WARR,large_airport,Juanda International Airport,-7.379829884,112.7870026,9,AS,ID,ID-JI,Surabaya,yes,WARR,SUB,,http://www.juanda-airport.com/,https://en.wikipedia.org/wiki/Juanda_International_Airport,WRSJ
26835,WIII,large_airport,Soekarno-Hatta International Airport,-6.12556982,106.6559982,34,AS,ID,ID-BT,Jakarta,yes,WIII,CGK,,http://www.jakartasoekarnohattaairport.com/,https://en.wikipedia.org/wiki/Soekarno-Hatta_International_Airport,"JKT, Cengkareng, Java"
309577,WIMM,large_airport,Kualanamu International Airport,3.642222,98.885278,23,AS,ID,ID-SU,,no,WIMM,KNO,,http://www.kualanamu-airport.co.id/,https://en.wikipedia.org/wiki/Kualanamu_International_Airport,
26887,WSSS,large_airport,Singapore Changi Airport,1.35019,103.994003,22,AS,SG,SG-04,Singapore,yes,WSSS,SIN,,http://www.changiairport.com/,https://en.wikipedia.org/wiki/Singapore_Changi_Airport,
27066,YMML,large_airport,Melbourne International Airport,-37.673302,144.843002,434,OC,AU,AU-VIC,Melbourne,yes,YMML,MEL,,http://melbourneairport.com.au/,https://en.wikipedia.org/wiki/Melbourne_Airport,
332096,YNT,large_airport,Yantai Penglai International Airport,37.657222,120.987222,154,AS,CN,CN-37,Yantai,yes,ZSYT,YNT,,http://www.ytairport.com.cn/,https://en.wikipedia.org/wiki/Yantai_Penglai_International_Airport,
27145,YSSY,large_airport,Sydney Kingsford Smith International Airport,-33.94609833,151.177002,21,OC,AU,AU-NSW,Sydney,yes,YSSY,SYD,,http://www.sydneyairport.com.au/,https://en.wikipedia.org/wiki/Kingsford_Smith_International_Airport,RAAF Station Mascot
27188,ZBAA,large_airport,Beijing Capital International Airport,40.08010101,116.5849991,116,AS,CN,CN-11,Beijing,yes,ZBAA,PEK,,http://en.bcia.com.cn/,https://en.wikipedia.org/wiki/Beijing_Capital_International_Airport,"BJS, Bejing, Peking, Olympics"
27189,ZBHH,large_airport,Baita International Airport,40.851398,111.823997,3556,AS,CN,CN-15,Hohhot,yes,ZBHH,HET,,http://www.hhhtbtjc.com/,https://en.wikipedia.org/wiki/Hohhot_Baita_International_Airport,
27194,ZGGG,large_airport,Guangzhou Baiyun International Airport,23.39240074,113.2990036,50,AS,CN,CN-44,Guangzhou,yes,ZGGG,CAN,,http://www.baiyunairport.com/english/index.jsp,https://en.wikipedia.org/wiki/Guangzhou_Baiyun_International_Airport,
27197,ZGNN,large_airport,Nanning Wuxu Airport,22.60829926,108.1719971,421,AS,CN,CN-45,Nanning,yes,ZGNN,NNG,,http://www.nnairport.com/,https://en.wikipedia.org/wiki/Nanning_Wuxu_International_Airport,"南宁吴圩机场, Nanning Wuxu Air Base"
27198,ZGSZ,large_airport,Shenzhen Bao'an International Airport,22.63929939,113.810997,13,AS,CN,CN-44,Shenzhen,yes,ZGSZ,SZX,,http://eng.szairport.com/,https://en.wikipedia.org/wiki/Shenzhen_Bao'an_International_Airport,"Baoan, Huangtian Airport"
27200,ZHHH,large_airport,Wuhan Tianhe International Airport,30.7838,114.208,113,AS,CN,CN-42,Wuhan,yes,ZHHH,WUH,,http://www.whairport.com/,https://en.wikipedia.org/wiki/Wuhan_Tianhe_International_Airport,
27205,ZLXY,large_airport,Xi'an Xianyang International Airport,34.447102,108.751999,1572,AS,CN,CN-61,Xi'an,yes,ZLXY,XIY,,http://www.xxia.com/,https://en.wikipedia.org/wiki/Xi'an_Xianyang_International_Airport,"西安咸阳国际机场, Xian"
27215,ZSAM,large_airport,Xiamen Gaoqi International Airport,24.54400063,118.1279984,59,AS,CN,CN-35,Xiamen,yes,ZSAM,XMN,,http://www.xiagc.com.cn/enweb/,https://en.wikipedia.org/wiki/Xiamen_Gaoqi_International_Airport,厦门高崎国际机场
27217,ZSFZ,large_airport,Fuzhou Changle International Airport,25.93510056,119.663002,46,AS,CN,CN-35,Fuzhou,yes,ZSFZ,FOC,,http://www.xiafz.com.cn/en/index.asp,https://en.wikipedia.org/wiki/Fuzhou_Changle_International_Airport,
27218,ZSHC,large_airport,Hangzhou Xiaoshan International Airport,30.22949982,120.4339981,23,AS,CN,CN-33,Hangzhou,yes,ZSHC,HGH,,http://www.hzairport.com/,https://en.wikipedia.org/wiki/Hangzhou_Xiaoshan_International_Airport,"Hang Zhou, 杭州萧山国际机场"
27230,ZUUU,large_airport,Chengdu Shuangliu International Airport,30.57850075,103.9469986,1625,AS,CN,CN-51,Chengdu,yes,ZUUU,CTU,,http://www.cdairport.com/cdairport/en_front/index.jsp,https://en.wikipedia.org/wiki/Chengdu_Shuangliu_International_Airport,成都双流国际机场